"adr_inter","adresse","adrzus_int","behindertenparkplatz","bemerkung","ccmail","da","datum","datum_cms","dep","editor","erforderlichedokumente","fax","hausnummer","hindernisfreiheit","infrastruktur","isbetriebsferien_gebaeude","isbetriebsferien_schalter","kategorie","mail","name","namenzus","objectid","oeffnungszeiten_gebaeude_di","oeffnungszeiten_gebaeude_do","oeffnungszeiten_gebaeude_fr","oeffnungszeiten_gebaeude_mi","oeffnungszeiten_gebaeude_mo","oeffnungszeiten_gebaeude_sa","oeffnungszeiten_gebaeude_so","oeffnungszeiten_schalter_di","oeffnungszeiten_schalter_do","oeffnungszeiten_schalter_fr","oeffnungszeiten_schalter_mi","oeffnungszeiten_schalter_mo","oeffnungszeiten_schalter_sa","oeffnungszeiten_schalter_so","ort","plz","poi_id","postadresse","publish_internet","strasse","suchen","tel","tel2","www","zahlungsmittel_internet","zahlungsmittel_schalter","zahlungsmittel_telefon","zvv_label","zvv_link","nummer","foto","eignung","geraete","bereich","infrastruk","besonderes","typ","elemente","gsz_id","geometry"
"","Ruedi-Walter-Strasse/Otto-Schütz-Weg","","","","","Grün Stadt Zürich","202412161130","","Tiefbau- und Entsorgungsdepartement (TED)","","","","","0_","Cafe_Parkplatz_Besuchenden-WC_Behinderten-WC_Kiosk<BR>Bancomat","","","Spielplatz","","Wahlenpark","","1275.0000000000","","","","","","","","","","","","","","","","8050","sp148","","1","","Spiel- und Liegewiese, Planschbecken, Pumpe, Rotationsgerät, Brettschaukel, Kletterelement,  Denkspiel, Drehteller, Wasserspiel, Bockrutsche, Sitzbänke, Züri-WC, Basketball, Brunnen, moderne, grosszügige Parkanlage","+41 44 412 06 77","","","","","","Ruedi-Walter-Strasse/Otto-Schütz-Weg","https://www.zvv.ch/de/fahrplan-und-informationen/fahrplan.html?toname=Ruedi-Walter-Strasse/Otto-Schütz-Weg&tolat=47.41576776&tolon=8.54075604","148","J","0 - 16 Jahre","Pumpe, Rotationsgerät, Brettschaukel, Kletterelement,  Denkspiel, Drehteller, Wasserspiel, Bockrutsche","","","moderne, grosszügige Parkanlage","Spielplatz","Spiel- und Liegewiese, Planschbecken","0148","POINT (2683172 1252246)"
"","Seestrasse 407","","","","","Grün Stadt Zürich","202412161130","","Tiefbau- und Entsorgungsdepartement (TED)","","","","","","","","","Spielplatz","","Rote Fabrik","","1276.0000000000","","","","","","","","","","","","","","","","8038","sp116","","1","","grosse Kiesfläche, Brettschaukel, Kletteranlage mit Rutsche, Bahnkarussell, Sandbereich, Pumpe, Federwippe, Sitzbänke, Feuerstelle, Spielschiff, See","+41 44 482 10 03","","","","","","","https://www.zvv.ch/de/fahrplan-und-informationen/fahrplan.html?toname=Seestrasse%20407&tolat=47.34298210&tolon=8.53702277","116","J","0 - 5 Jahre","Brettschaukel, Kletteranlage mit Rutsche, Bahnkarussell, Sandbereich, Pumpe, Federwippe","","","schönes Spielschiff direkt am See","Spielplatz","grosse Kiesfläche","0116","POINT (2683003.5 1244150.4)"
"","Dora Staudingerstrasse","","","","","Grün Stadt Zürich","202412161130","","Tiefbau- und Entsorgungsdepartement (TED)","","","","","","","","","Spielplatz","","Holderbachwiese","","1277.0000000000","","","","","","","","","","","","","","","","8046","sp174","","1","","Fussballwiese, keine Spielgeräte, Sitzbänke, Brunnen, Bolzplatz","+41 44 371 05 13","","","","","","","https://www.zvv.ch/de/fahrplan-und-informationen/fahrplan.html?toname=Dora%20Staudingerstrasse&tolat=47.42204554&tolon=8.50521983","174","J","0 - 16 Jahre","keine Spielgeräte","","","kleiner Bolzplatz","Spielplatz","Fussballwiese","0174","POINT (2680481 1252906.9)"
"","","","","","","Grün Stadt Zürich","202503051124","","Tiefbau- und Entsorgungsdepartement (TED)","","","","196","","","","","Spielplatz","","DreispitzDreispitz","","1278.0000000000","","","","","","","","","","","","","","","Zürich","8051","sp9654","","1","Ueberlandstrasse","","044 412 12 35","","","","","","Dreispitz","https://www.zvv.ch/de/fahrplan-und-informationen/haltestellenfahrplan.html","","N","3 - 15","Balanciergerät","","","Spielplatz im Ueberlandpark","Spielplatz","Spiel und Sport","0126","POINT (2685356.5 1251631.6)"
"","Wasserwerkstrasse","","","","","Grün Stadt Zürich","202412161130","","Tiefbau- und Entsorgungsdepartement (TED)","","","","","0_","_NULL","","","Spielplatz","","Unterer Letten(Freibad)","","1279.0000000000","","","","","","","","","","","","","","","Zürich","8037","sp188","","1","","Spiel- und Liegewiese, Brettschaukel, Sitzkarussell, Kletteranlage mit Rutsche, Sitzbänke, Badeanlage","+41 44 361 63 18","","","","","","Wasserwerkstrasse","https://www.zvv.ch/de/fahrplan-und-informationen/fahrplan.html?toname=Zürich%2C%20Wasserwerkstrasse&tolat=47.38630591&tolon=8.53443853","188","J","0 - 9 Jahre","Brettschaukel, Sitzkarussell, Kletteranlage mit Rutsche","","","Spielanlage in Badeanlage. Öffnungszeiten berücksichtigen!","Spielplatz in Badeanlage","Spiel- und Liegewiese","0188","POINT (2682741 1248964)"
"","Leutschenbachstrasse","","","","","Grün Stadt Zürich","202412161130","","Tiefbau- und Entsorgungsdepartement (TED)","","","","","","","","","Spielplatz","","Leutschenpark","","1280.0000000000","","","","","","","","","","","","","","","","8050","sp149","","1","","Spiel- und Liegewiese, Planschbecken, Boulderwand, Kletterelement, Pumpen, Pendelschaukel, Klettergerät, Sandbereich, Sitzbänke, Brunnen, moderne, grosszügige Parkanlage","+41 44 322 02 20","","","","","","","https://www.zvv.ch/de/fahrplan-und-informationen/fahrplan.html?toname=Leutschenbachstrasse&tolat=47.41765076&tolon=8.55621996","149","J","0 - 9 Jahre","Kletterelement, Pumpen, Pendelschaukel, Klettergerät, Sandbereich","","","moderne, grosszügige Parkanlage","Spielplatz","Spiel- und Liegewiese, Planschbecken, Boulderwand","0149","POINT (2684336 1252471.9)"
"","Edelweissstrasse","","","","","Grün Stadt Zürich","202412161130","","Tiefbau- und Entsorgungsdepartement (TED)","","","","","","","","","Spielplatz","","Letzigraben (Freibad)","","1281.0000000000","","","","","","","","","","","","","","","","8047","sp187","","1","","Spiel- und Liegewiese, Drehscheiben, Rotationsgerät, Kletterelement, Sitzbänke, Badeanlage","+41 44 461 21 17","","","","","","","https://www.zvv.ch/de/fahrplan-und-informationen/fahrplan.html?toname=Edelweissstrasse&tolat=47.37934835&tolon=8.49909463","187","J","0 - 9 Jahre","Drehscheiben, Rotationsgerät, Kletterelement","","","Spielanlage in Badeanlage. Öffnungszeiten berücksichtigen!","Spielplatz in Badeanlage","Spiel- und Liegewiese","0187","POINT (2680083 1248153.9)"
"","Regensberg-/Binzwiesen-/Friedheimstrasse","","","","","Grün Stadt Zürich","202412161130","","Tiefbau- und Entsorgungsdepartement (TED)","","","","","","","","","Spielplatz","","Waldgarten","","1282.0000000000","","","","","","","","","","","","","","","","8050","sp019","","1","","grosse Spiel- und Liegewiese, grosse Kiesfläche, Kletteranlage mit Rutsche, Brettschaukel, Kletterbaumstamm,  Sandbereich, Tischtennistisch, Sandkasten, Brunnen, Quartiertreff","+41 44 322 02 20","","","","","","","https://www.zvv.ch/de/fahrplan-und-informationen/fahrplan.html?toname=Regensberg-/Binzwiesen-/Friedheimstrasse&tolat=47.40425426&tolon=8.55514224","19","J","0 - 16 Jahre","Kletteranlage mit Rutsche, Brettschaukel, Kletterbaumstamm,  Sandbereich, Tischtennistisch, Sandkasten","","","grosse Spielwiese mit Quartiertreff","Spielplatz","grosse Spiel- und Liegewiese, grosse Kiesfläche","0019","POINT (2684275.8 1250981.4)"
"","Stauffacher-/Feldstrasse","","","","","Grün Stadt Zürich","202412161130","","Tiefbau- und Entsorgungsdepartement (TED)","","","","","","","","","Spielplatz","","Bäckeranlage","","1349.0000000000","","","","","","","","","","","","","","","","8004","sp108","","1","","Spiel- und Liegewiese, Planschbecken, Brettschaukel, Sitzkarussell, Sandkasten, Kletternetzpyramide, Bockrutsche, Korbschaukel, ZüriWC, Planschbecken, Sitzbänke, Spielanimation, Quartierzentrum Restaurant,  Baumbestand","+41 44 461 21 17","","","","","","","https://www.zvv.ch/de/fahrplan-und-informationen/fahrplan.html?toname=Stauffacher-/Feldstrasse&tolat=47.37782415&tolon=8.52358199","108","J","0 - 16 Jahre","Brettschaukel, Sitzkarussell, Sandkasten, Kletternetzpyramide, Bockrutsche, Korbschaukel","","","Quartierzentrum mit Restaurant, grosszügige Anlage mit verschiedenen Bereichen, alter Baumbestand","Spielplatz","Spiel- und Liegewiese, Planschbecken","0108","POINT (2681934.2 1248009.6)"
"","Aemtlerstrasse","","","","","Grün Stadt Zürich","202412161130","","Tiefbau- und Entsorgungsdepartement (TED)","","","","","","","","","Spielplatz","","Aemtleranlage","","1350.0000000000","","","","","","","","","","","","","","","","8003","sp067","","1","","Spiel- und Liegewiese, Seilanlage mit Rutsche, Wasserspiel, Kletteranlage mit Rutsche, Einpunktschaukel, Sandbereich,  Wasserförderanlage, Kletteranlage mit Rutsche, Wasserförderanlage, Sitzbänke, Brunnen, Feuerstellen, Pergola, Baumbestand","+41 44 492 71 41","","","","","","","https://www.zvv.ch/de/fahrplan-und-informationen/fahrplan.html?toname=Aemtlerstrasse&tolat=47.37384901&tolon=8.51114092","67","J","0 - 9 Jahre","Seilanlage mit Rutsche, Wasserspiel, Kletteranlage mit Rutsche, Einpunktschaukel, Sandbereich,  Wasserförderanlage, Kletteranlage mit Rutsche, Wasserförderanlage","","","historische Parkanlage mit schönem Baumbestand","Spielplatz","Spiel- und Liegewiese","0067","POINT (2681001 1247554.9)"
"","Bodenacker 25","","","","","Grün Stadt Zürich","202412161130","","Tiefbau- und Entsorgungsdepartement (TED)","","","","","","","","","Spielplatz","","GZ Affoltern","","1351.0000000000","","","","","","","","","","","","","","","","8046","sp001","","1","","Spiel- und Liegewiese, Spielhügel, Pergola,  Grillstellen, Seilbahn, Sandkasten, Kombischaukel, Kletterelement, Drehkletterturm, Röhre, Rundlauf, Rutsche, Federwippe, Tischtennistisch, Pergola,  Feuerstellen, Brunnen, Tisch, Gemeinschaftszentrum","+41 44 371 05 13","","","","","","","https://www.zvv.ch/de/fahrplan-und-informationen/fahrplan.html?toname=Bodenacker%2025&tolat=47.42493817&tolon=8.51048664","1","J","0 - 16 Jahre","Seilbahn, Sandkasten, Kombischaukel, Kletterelement, Drehkletterturm, Röhre, Rundlauf, Geschlossene Rutsche, Federwippe, Tischtennistisch","","","Gemeinschaftszentrum, naturnahe Umgebung","GZ mit Spielplatz","Spiel- und Liegewiese, Spielhügel, Pergola,  Grillstellen","0001","POINT (2680874 1253233.9)"
"","Neubrunnen-/Birchstrasse","","","","","Grün Stadt Zürich","202412161130","","Tiefbau- und Entsorgungsdepartement (TED)","","","","","0_","_NULL","","","Spielplatz","","Werkhof Zürich Nord","","1352.0000000000","","","","","","","","","","","","","","","","8050","sp162","","1","","Spielhügel, Kletterelement, Balanciergerät, Findlinge, Spielplatztafel, kleine Spielanlage","+41 44 412 06 77","","","","","","Neubrunnen-/Birchstrasse","https://www.zvv.ch/de/fahrplan-und-informationen/fahrplan.html?toname=Neubrunnen-/Birchstrasse&tolat=47.41702986&tolon=8.53762809","162","J","0 - 5 Jahre","Kletterelement, Balanciergerät, Findlinge","","","kleine Spielanlage","Spielplatz","Spielhügel","0162","POINT (2682934 1252383)"
"","Gleisbogen 40 (Spielplatz)","","","","","Grün Stadt Zürich","202412161130","","Tiefbau- und Entsorgungsdepartement (TED)","","","","","","","","","Spielplatz","","Pfingstweidpark","","1353.0000000000","","","","","","","","","","","","","","","","8005","sp189","","1","","Spiel- und Liegewiese, Planschbecken, Brettschaukel, Offene Hangrutsche, Brettschaukel, Sandbereich, Pumpen, Tischtennistisch, Sitzbänke, Feuerstelle, Sonnenschirm, moderne Parkanlage","+41 44 461 21 17","","","","","","","https://www.zvv.ch/de/fahrplan-und-informationen/fahrplan.html?toname=Gleisbogen%2040%20(Spielplatz)&tolat=47.38814850&tolon=8.51240891","189","J","0 - 5 Jahre","Brettschaukel, Offene Hangrutsche, Brettschaukel, Sandbereich, Pumpen, Tischtennistisch","","","moderne Parkanlage","Spielplatz","Spiel- und Liegewiese, Planschbecken","0189","POINT (2681075 1249145.9)"
"","Klingen-/Josefstrasse 46","","","","","Grün Stadt Zürich","202412161130","","Tiefbau- und Entsorgungsdepartement (TED)","","","","","","","","","Spielplatz","","Klingenhof","","1354.0000000000","","","","","","","","","","","","","","","","8005","sp101","","1","","Kiesplatz, Rotationsgerät, Federwippe, Sandbereich, Hangrutsche, Sitzbänke, Brunnen, Basketballkorb, einmalige Spielanlage im Innenhof, Bauruine","+41 44 461 21 17","","","","","","","https://www.zvv.ch/de/fahrplan-und-informationen/fahrplan.html?toname=Klingen-/Josefstrasse%2046&tolat=47.38194114&tolon=8.53295770","101","J","0 - 5 Jahre","Rotationsgerät, Federwippe, Sandbereich, Hangrutsche","","","einmalige Spielanlage im Innenhof, ehemalige Bauruine als Spielplatz genutzt","Spielplatz","Kiesplatz","0101","POINT (2682636 1248477.2)"
"","Mythenquai","","","","","Grün Stadt Zürich","202412161130","","Tiefbau- und Entsorgungsdepartement (TED)","","","","","","","","","Spielplatz","","Mythenquai (Strandbad)","","1355.0000000000","","","","","","","","","","","","","","","","8002","sp134","","1","","Spiel- und Liegewiese, Sandstrand, Bockrutsche, Brettschaukel, Hängematte, Federwippe, Pendelschaukel, Partnerschaukel, Korbschaukel, Sitzkarussell, Drehkletterturm, Sitzbänke","+41 44 201 75 00","","","","","","","https://www.zvv.ch/de/fahrplan-und-informationen/fahrplan.html?toname=Mythenquai&tolat=47.35344183&tolon=8.53461163","134","J","0 - 9 Jahre","Bockrutsche, Brettschaukel, Hängematte, Federwippe, Pendelschaukel, Partnerschaukel, Korbschaukel, Sitzkarussell, Drehkletterturm","","","Jeweils kostenlos zugänglich von Oktober bis April","Spielplatz in Badeanlage","Spiel- und Liegewiese, Sandstrand","0134","POINT (2682805 1245310.6)"
"","Erligatterweg 51","","","","","Grün Stadt Zürich","202412161130","","Tiefbau- und Entsorgungsdepartement (TED)","","","","","","","","","Spielplatz","","GZ Neubühl","","1422.0000000000","","","","","","","","","","","","","","","","8038","sp087","","1","","Spiel- und Liegewiese, Sandkasten, Brettschaukel, Balkenwippe, Hangrutsche, Federwippe,  Spielkisten, Sitzbänke, Feuerstelle, Gemeinschaftszentrum","+41 44 482 10 03","","","","","","","https://www.zvv.ch/de/fahrplan-und-informationen/fahrplan.html?toname=Erligatterweg%2051&tolat=47.33202140&tolon=8.53273682","87","J","0 - 5 Jahre","Sandkasten, Brettschaukel, Balkenwippe, Hangrutsche, Federwippe","","","Gemeinschaftszentrum mit übersichtlichem Aussenraum","GZ mit Spielplatz","Spiel- und Liegewiese","0087","POINT (2682696.8 1242927.4)"
"","Untere Zäune","","","","","Grün Stadt Zürich","202412161130","","Tiefbau- und Entsorgungsdepartement (TED)","","","","","","","","","Spielplatz","","Untere Zäune","","1423.0000000000","","","","","","","","","","","","","","","","8001","sp047","","1","","Kleiner Kiesplatz mit Sitzmöglichkeiten, Brettschaukel, Sandbereich, Karussell, Balanciergerät, Hüpfteller, Klettergerät, Tischtennistisch, Sitzbänke, eingezäunter Kleinkinderspielbereich, Baumbestand","+41 44 361 63 18","","","","","","","https://www.zvv.ch/de/fahrplan-und-informationen/fahrplan.html?toname=Untere%20Zäune&tolat=47.37198608&tolon=8.54555679","47","J","0 - 5 Jahre","Brettschaukel, Sandbereich, Karussell, Balanciergerät, Hüpfteller, Klettergerät, Tischtennistisch","","","eingezäunter Kleinkinderspielbereich unter altem Baumbestand","Spielplatz","Kleiner Kiesplatz mit Sitzmöglichkeiten","0047","POINT (2683603 1247383.9)"
"","Buchegg-/Hofwiesenstrasse","","","","","Grün Stadt Zürich","202412161130","","Tiefbau- und Entsorgungsdepartement (TED)","","","","","","","","","Spielplatz","","GZ Buchegg","","1424.0000000000","","","","","","","","","","","","","","","","8057","sp024","","1","","Sandanlage, Boulderwand, Spielhügel, Hängematte, Seilbahn,  Hangrutsche, Rutsche, Kombischaukel,  Brettschaukel, Kletterelement, Balanciergerät, Korbschaukel, Sandspielgeräte,  Wasserspiel, Feuerstellen, Gemeinschaftszentrum, Tiere, Velopark","+41 44 361 63 18","","","","","","","https://www.zvv.ch/de/fahrplan-und-informationen/fahrplan.html?toname=Buchegg-/Hofwiesenstrasse&tolat=47.39971366&tolon=8.53471309","24","J","0 - 16 Jahre","Hängematte, Seilbahn,  Hangrutsche, Geschlossene Rutsche, Kombischaukel,  Brettschaukel, Kletterelement, Balanciergerät, Korbschaukel, Sandspielgeräte, Pumpen, Wasserspiel","","","Gemeinschaftszentrum mit Tieren,  grosszügige Anlage, Velopark","GZ mit Spielplatz","Sandanlage, Spiel- und Liegewiese, Boulderwand, Spielhügel","0024","POINT (2682741 1250454.9)"
"","Algierstrasse","","","","","Grün Stadt Zürich","202412161130","","Tiefbau- und Entsorgungsdepartement (TED)","","","","","","","","","Spielplatz","","Buchlern","","1425.0000000000","","","","","","","","","","","","","","","","8048","sp104a","","1","","Bach, Spiel- und Liegewiese, Bockrutsche, Federwippe, Seilbahn, Brettschaukel, Sandbereich, Federwippe, Balanciergerät, Kletteranlage mit Rutsche, Sitzbänke, Fussballtore, Bach","+41 44 431 57 61","","","","","","","https://www.zvv.ch/de/fahrplan-und-informationen/fahrplan.html?toname=Algierstrasse&tolat=47.37983750&tolon=8.47981292","104a","J","0 - 9 Jahre","Bockrutsche, Federwippe, Seilbahn, Brettschaukel, Sandbereich, Federwippe, Balanciergerät, Kletteranlage mit Rutsche","","","grosszügige Spielanlage am Bach","Spielplatz","Bach, Spiel- und Liegewiese","0104A","POINT (2678626.2 1248188.8)"
"","Winterthurer-/Milchbuckstrasse","","","","","Grün Stadt Zürich","202412161130","","Tiefbau- und Entsorgungsdepartement (TED)","","","","","","","","","Spielplatz","","Milchbuckanlage","","1426.0000000000","","","","","","","","","","","","","","","","8057","sp028","","1","","Spiel- und Liegewiese, Brettschaukel, Sandbereich, Federwippe, Sitzbänke","+41 44 361 63 18","","","","","","","https://www.zvv.ch/de/fahrplan-und-informationen/fahrplan.html?toname=Winterthurer-/Milchbuckstrasse&tolat=47.39375760&tolon=8.54428698","28","J","0 - 5 Jahre","Brettschaukel, Sandbereich, Federwippe","","","Kleine Parkanlage","Spielplatz","Spiel- und Liegewiese","0028","POINT (2683473 1249802.9)"
"","Rieter-/Waffenplatzstrasse","","","","","Grün Stadt Zürich","202412161130","","Tiefbau- und Entsorgungsdepartement (TED)","","","","","","","","","Spielplatz","","Rieteranlage","","1427.0000000000","","","","","","","","","","","","","","","","8002","sp117","","1","","grosse Kiesfläche, Federwippe, Brettschaukel, Sitzbänke, Pergola","+41 44 201 75 00","","","","","","","https://www.zvv.ch/de/fahrplan-und-informationen/fahrplan.html?toname=Rieter-/Waffenplatzstrasse&tolat=47.35642417&tolon=8.52654996","117","J","0 - 5 Jahre","Federwippe, Brettschaukel","","","kleine Spielanlage","Spielplatz","grosse Kiesfläche","0117","POINT (2682191.5 1245633.8)"
"","Glaubten-Müsel","","","","","Grün Stadt Zürich","202412161130","","Tiefbau- und Entsorgungsdepartement (TED)","","","","","0_","Spielplatz","","","Spielplatz","","Glaubten-Müsel (Nord)Glaubten-Müsel (Nord)","","1428.0000000000","","","","","","","","","","","","","","","","","sp9622","","1","","","+41 44 412 46 13","","","","","","Glaubten-Müsel","https://www.zvv.ch/de/fahrplan-und-informationen/fahrplan.html?toname=Glaubten-Müsel&tolat=47.40812495&tolon=8.51175256","","N","","","","","","","","0088A","POINT (2680995 1251366)"
"","Fronwaldstrasse","","","","","Grün Stadt Zürich","202412161130","","Tiefbau- und Entsorgungsdepartement (TED)","","","","","0__","_NULL","","","Spielplatz","","Bauspielplatz Affoltern","","1429.0000000000","","","","","","","","","","","","","","","","8046","sp192","","1","","Abenteuerspielplatz, keine Spielgeräte, Feuerstelle, Hauptaktivität ist der Bau von Hütten und das Werken mit Holz und anderen Materialien, Bauspielplatz","+41 44 371 09 20","","","","","","Fronwaldstrasse","https://www.zvv.ch/de/fahrplan-und-informationen/fahrplan.html?toname=Zürich, Fronwaldstrasse 13","192","J","0 - 16 Jahre","keine Spielgeräte","","","Hauptaktivität ist der Bau von Hütten und das Werken mit Holz und anderen Materialien, beaufsichtigter Bauspielplatz mit Öffnungszeiten","Bauspielplatz - privater Verei","Abenteuerspielplatz","0193","POINT (2681535 1252156)"
"","Opfikonstrasse","Opfikonstrasse","","","","Grün Stadt Zürich","202412161130","","Tiefbau- und Entsorgungsdepartement (TED)","","","","","0_","","","","Spielplatz","","OpfikonstrasseOpfikonstrasse","0006","1496.0000000000","","","","","","","","","","","","","","","","","sp9104","","1","","","+41 44 322 02 20","","","","","","Opfikonstrasse","https://www.zvv.ch/de/fahrplan-und-informationen/fahrplan.html?toname=Opfikonstrasse&tolat=47.41787127&tolon=8.56976968","","N","","","","","","","","0006","POINT (2685358 1252511)"
"","Föhrenstrasse","","","","","Grün Stadt Zürich","202412161130","","Tiefbau- und Entsorgungsdepartement (TED)","","","","","","","","","Spielplatz","","Föhrenwald","","1497.0000000000","","","","","","","","","","","","","","","","8050","sp015","","1","","Spiel- und Liegewiese, Planschbecken, Kletteranlage mit Rutsche, Brettschaukel, Brettschaukel, Spielhaus, Sandbereich, Hüpfteller,  Federwippe, Feuerstellen, Wald","+41 44 322 02 20","","","","","","","https://www.zvv.ch/de/fahrplan-und-informationen/fahrplan.html?toname=Föhrenstrasse&tolat=47.40580982&tolon=8.54159575","15","J","0 - 9 Jahre","Kletteranlage mit Rutsche, Brettschaukel, Brettschaukel, Spielhaus, Sandbereich, Hüpfteller,  Federwippe","","","im Wald gelegener Quartierspielplatz","Spielplatz","Spiel- und Liegewiese, Planschbecken","0015","POINT (2683251 1251139.9)"
"","Obere Waidstrasse","","","","","Grün Stadt Zürich","202412161130","","Tiefbau- und Entsorgungsdepartement (TED)","","","","","","","","","Spielplatz","","Obere Waidstrasse","","1498.0000000000","","","","","","","","","","","","","","","","8037","sp023","","1","","Sandanlage, Sandbereich, Brettschaukel, Kletteranlage mit Rutsche, Brunnen, Sitzbänke, Aussicht","+41 44 361 63 18","","","","","","","https://www.zvv.ch/de/fahrplan-und-informationen/fahrplan.html?toname=Obere%20Waidstrasse&tolat=47.39960751&tolon=8.52212539","23","J","0-5 Jahre","Sandbereich, Brettschaukel, Kletteranlage mit Rutsche","","","Aussichtspunkt","Spielplatz","Sandanlage","0023","POINT (2681791 1250429.9)"
"","Manesseplatz","","","Das sind keine klassischen Spielplätze, aber da hat es Spielgeräte.<BR>Damit will man dieses Quartier aufwerten.<BR>","","Grün Stadt Zürich","202412161130","","Tiefbau- und Entsorgungsdepartement (TED)","","","","","0__","Spielplatz_Das sind keine klassischen Spielplätze, aber da hat es Spielgeräte.<br>Damit will man dieses Quartier aufwerten.<br>","","","Spielplatz","","Manesseplatz","","1499.0000000000","","","","","","","","","","","","","","","","","sp9645","","0","","","+41 44 412 46 13","","","","","","Manesseplatz","https://www.zvv.ch/de/fahrplan-und-informationen/fahrplan.html?toname=Zürich, Manessestrasse 80","","N","","","","","","","","TAZ007","POINT (2681806 1246667)"
"","Balgriststrasse","","","","","Grün Stadt Zürich","202412161130","","Tiefbau- und Entsorgungsdepartement (TED)","","","","","0_","_NULL","","","Spielplatz","","Balgrist","","1500.0000000000","","","","","","","","","","","","","","","","8008","sp059","","0","","Kiesplatz, Kletterturm, Hüpfteller, Kletterelement, Korbschaukel, Hängematte, Reck, Sitzbänke","+41 44 422 54 97","","","","","","Balgriststrasse","https://www.zvv.ch/de/fahrplan-und-informationen/fahrplan.html?toname=Balgriststrasse&tolat=47.35410165&tolon=8.57827889","59","J","0 - 9 Jahre","Kletterturm, Hüpfteller, Kletterelement, Korbschaukel, Hängematte, Reck","","","Quartierspielplatz","Spielplatz","Kiesplatz","0059","POINT (2686103 1245431)"
"","Staffelstrasse","","","Das sind keine klassischen Spielplätze, aber da hat es Spielgeräte.<BR>Damit will man dieses Quartier aufwerten.<BR>","","Grün Stadt Zürich","202412161130","","Tiefbau- und Entsorgungsdepartement (TED)","","","","","0__","Spielplatz_Das sind keine klassischen Spielplätze, aber da hat es Spielgeräte.<br>Damit will man dieses Quartier aufwerten.<br>","","","Spielplatz","","Staffelstrasse 8","","1501.0000000000","","","","","","","","","","","","","","","","","sp9647","","0","","","+41 44 412 46 13","","","","","","Staffelstrasse","https://www.zvv.ch/de/fahrplan-und-informationen/fahrplan.html?toname=Zürich, Staffelstrasse 6","","N","","","","","","","","TAZ009","POINT (2681811 1246186)"
"Heinrichstrasse 240","Quartierpark Schütze-Areal","Quartierpark Schütze","","","","Grün Stadt Zürich","202412161130","","Tiefbau- und Entsorgungsdepartement (TED)","","","","","0_","Spielplatz","","","Spielplatz","","Quartierpark Schütze (A) Quartierpark Schütze (A)","","1502.0000000000","","","","","","","","","","","","","","","Zürich","8005","sp9568","","1","","Quartierpark Schütze","+41 44 361 63 18","","","","","","Quartierpark Schütze-Areal","https://www.zvv.ch/de/fahrplan-und-informationen/fahrplan.html?toname=Zürich%2C%20Quartierpark%20Schütze-Areal&tolat=47.38943114&tolon=8.52353555","","N","","","","","","","","0151A","POINT (2681913 1249300)"
"","Kantstrasse","","","","","Grün Stadt Zürich","202412161130","","Tiefbau- und Entsorgungsdepartement (TED)","","","","","","","","","Spielplatz","","Kirche Fluntern","","1503.0000000000","","","","","","","","","","","","","","","","8044","sp046","","1","","Spiel- und Liegewiese, Pumpen, Brettschaukel, Sandbereich, Sitzbänke, Brunnen","+41 44 361 63 18","","","","","","","https://www.zvv.ch/de/fahrplan-und-informationen/fahrplan.html?toname=Kantstrasse&tolat=47.37663354&tolon=8.55628992","46","J","0 - 5 Jahre","Pumpen, Brettschaukel, Sandbereich","","","ruhig, schön gelegene Anlage","Spielplatz","Spiel- und Liegewiese","0046","POINT (2684406.2 1247912)"
"","Hohe Promenade","","","","","Grün Stadt Zürich","202412161130","","Tiefbau- und Entsorgungsdepartement (TED)","","","","","","","","","Spielplatz","","Hohe Promenade","","1570.0000000000","","","","","","","","","","","","","","","","8001","sp051","","1","","Kleinkinderspielplatz, Sitzkarussell, Brettschaukel, Federwippe, Rutsche, Sandbereich, Sitzbänke, Brunnen, eingefriedeter Kleinkinderspielplatz","+41 44 361 63 18","","","","","","","https://www.zvv.ch/de/fahrplan-und-informationen/fahrplan.html?toname=Hohe%20Promenade&tolat=47.36776569&tolon=8.54877439","51","J","0 - 5 Jahre","Sitzkarussell, Brettschaukel, Federwippe, Rutsche, Sandbereich","","","eingefriedeter Kleinkinderspielplatz","Spielplatz","Kleinkinderspielplatz","0051","POINT (2683852.5 1246918.1)"
"","Loorenkopfstrasse","","","","","Grün Stadt Zürich","202412161130","","Tiefbau- und Entsorgungsdepartement (TED)","","","","","0_","_NULL","","","Spielplatz","","Loorenkopf","","1571.0000000000","","","","","","","","","","","","","","","","8053","sp137","","0","","grosse Kiesfläche, keine Spielgeräte, Sitzbänke,  Feuerstelle, Brunnen, Unterstand, Waldspielplatz, Waldlichtung, Aussichtsturm","+41 44 422 54 97","","","","","","Loorenkopfstrasse","https://www.zvv.ch/de/fahrplan-und-informationen/fahrplan.html?toname=Loorenkopfstrasse&tolat=47.36967359&tolon=8.59894936","137","J","0 - 5 Jahre","keine Spielgeräte","","","Waldspielplatz in Waldlichtung, Aussichtsturm","Spielfläche im Wald","grosse Kiesfläche","0137","POINT (2687639 1247185)"
"","Zurlindenstrasse (Eingang SPPL)","","","Das sind keine klassischen Spielplätze, aber da hat es Spielgeräte.<BR>Damit will man dieses Quartier aufwerten.<BR>","","Grün Stadt Zürich","202412161130","","Tiefbau- und Entsorgungsdepartement (TED)","","","","","0__","Spielplatz_Das sind keine klassischen Spielplätze, aber da hat es Spielgeräte.<br>Damit will man dieses Quartier aufwerten.<br>","","","Spielplatz","","Zurlindenstrasse (Eingang SPPL)","","1572.0000000000","","","","","","","","","","","","","","","","","sp9648","","0","","","+41 44 412 46 13","","","","","","Zurlindenstrasse (Eingang SPPL)","https://www.zvv.ch/de/fahrplan-und-informationen/fahrplan.html?toname=Zürich, Zurlindenstrasse 40","","N","","","","","","","","TAZ010","POINT (2681828 1246996)"
"","Schärrergasse","","","","","Grün Stadt Zürich","202412161130","","Tiefbau- und Entsorgungsdepartement (TED)","","","","","","","","","Spielplatz","","Schärrerwiese","","1573.0000000000","","","","","","","","","","","","","","","","8049","sp090","","1","","Spiel- und Liegewiese,  Wasserspielbereich, Brettschaukel, Bockrutsche, Kletteranlage mit Rutsche, Pumpen, Sandbereich, Spielkisten, Sitzbänke, Pergola, Heckenlabyrinth","+41 44 344 14 00","","","","","","","https://www.zvv.ch/de/fahrplan-und-informationen/fahrplan.html?toname=Schärrergasse&tolat=47.40282776&tolon=8.49757365","90","J","0 - 9 Jahre","Brettschaukel, Bockrutsche, Kletteranlage mit Rutsche, Pumpen, Sandbereich","","","grosszügige Parkanlage mit Heckenlabyrinth","Spielplatz","Spiel- und Liegewiese,  Wasserspielbereich","0090","POINT (2679932.8 1250762.6)"
"Heinrichstrasse 240","Quartierpark Schütze-Areal","Quartierpark Schütze","","Die Spielwiese im Zentrum des Quartierparks","","Grün Stadt Zürich","202412161130","","Tiefbau- und Entsorgungsdepartement (TED)","","","","","0_","Spielplatz","","","Spielplatz","","Quartierpark Schütze (B)Quartierpark Schütze (B)","","1574.0000000000","","","","","","","","","","","","","","","Zürich","8005","sp9569","","1","","","+41 44 412 46 13","","","","","","Quartierpark Schütze-Areal","https://www.zvv.ch/de/fahrplan-und-informationen/fahrplan.html?toname=Zürich%2C%20Quartierpark%20Schütze-Areal&tolat=47.38943114&tolon=8.52353555","","N","","","","","","","","0151B","POINT (2681913 1249300)"
"","Nord-/Kronenstrasse","","","","","Grün Stadt Zürich","202412161130","","Tiefbau- und Entsorgungsdepartement (TED)","","","","","","","","","Spielplatz","","GZ Schindlergut","","1575.0000000000","","","","","","","","","","","","","","","","8006","sp033a","","1","","Spiel- und Liegewiese, Sandbereich, Brettschaukel, Kletteranlagen mit Rutsche, Korbschaukel, Tischtennistisch, Sitzbänke, Feuerstellen, Gemeinschaftszentrum, Aussicht, Pflanzenlabyrinth","+41 44 361 63 18","","","","","","","https://www.zvv.ch/de/fahrplan-und-informationen/fahrplan.html?toname=Nord-/Kronenstrasse&tolat=47.38691101&tolon=8.53654472","33a","J","0 - 16 Jahre","Sandbereich, Brettschaukel, Kletteranlagen mit Rutsche, Korbschaukel, Tischtennistisch","","","Gemeinschaftszentrum, sehr grosszügige Anlage mit Aussicht, Pflanzenlabyrinth","GZ mit Spielplatz","Spiel- und Liegewiese","0033A","POINT (2682899 1249033.5)"
"","Glaubten-Müseli (Süd)","","","","","Grün Stadt Zürich","202412161130","","Tiefbau- und Entsorgungsdepartement (TED)","","","","","0_","Spielplatz","","","Spielplatz","","Glaubten-Müseli (Süd)Glaubten-Müseli (Süd)","","1576.0000000000","","","","","","","","","","","","","","","Zürich","8049","sp9623","","1","","","+41 44 412 46 13","","","","","","","https://www.zvv.ch/de/fahrplan-und-informationen/fahrplan.html?toname=Zürich%2C%20Glaubten-Müseli%20(Süd)&tolat=47.40753645&tolon=8.51216471","","N","","","","","","","","0088B","POINT (2681027 1251301)"
"","Owenweg","","","","","Grün Stadt Zürich","202412161130","","Tiefbau- und Entsorgungsdepartement (TED)","","","","","","","","","Spielplatz","","Entlisberg/Owenweg","","1643.0000000000","","","","","","","","","","","","","","","","8038","sp085","","1","","Spiel- und Liegewiese, Balkenwippe, Spielhaus, Federwippe, Sitzkarussell, Kletteranlage mit Rutsche, Hangrutsche, Brettschaukel, Federwippe, Sandbereich, Tischtennistisch, Sitzbänke,","+41 44 482 10 03","","","","","","","https://www.zvv.ch/de/fahrplan-und-informationen/fahrplan.html?toname=Owenweg&tolat=47.33805548&tolon=8.52751767","85","J","0 - 9 Jahre","Balkenwippe, Spielhaus, Federwippe, Sitzkarussell, Kletteranlage mit Rutsche, Hangrutsche, Brettschaukel, Federwippe, Sandbereich, Tischtennistisch","","","einzigartige, krumme und schiefe Kletteranlage","Spielplatz","Spiel- und Liegewiese","0085","POINT (2682292.8 1243592.8)"
"","Gutstrasse","","","","","Grün Stadt Zürich","202412161130","","Tiefbau- und Entsorgungsdepartement (TED)","","","","","","","","","Spielplatz","","Im Gut","","2528.0000000000","","","","","","","","","","","","","","","","8055","sp069","","1","","Spiel- und Liegewiese, Sandbereich, Kletteranlage mit Rutsche, Lauschrohr, Sitzbänke","+41 44 492 71 41","","","","","","","https://www.zvv.ch/de/fahrplan-und-informationen/fahrplan.html?toname=Gutstrasse&tolat=47.37131155&tolon=8.50550176","69","J","0 - 9 Jahre","Sandbereich, Kletteranlage mit Rutsche, Lauschrohr","","","Attraktiver, vielfältiger Spielplatz","Spielplatz","Spiel- und Liegewiese","0069","POINT (2680578.8 1247267)"
"","Schaffhauserstrasse","","","","","Grün Stadt Zürich","202412161130","","Tiefbau- und Entsorgungsdepartement (TED)","","","","","0_","_NULL","","","Spielplatz","","Emil-Oberhänsli-Anlage","","2529.0000000000","","","","","","","","","","","","","","","","8050","sp007","","1","","Spiel- und Liegewiese, Federwippe,  Schwingwippe, Kleinkinderschaukel, Rutsche, Sandbereich, Sandspielgeräte, Tischtennistisch, Sitzbänke","+41 44 412 06 77","","","","","","Schaffhauserstrasse","https://www.zvv.ch/de/fahrplan-und-informationen/fahrplan.html?toname=Schaffhauserstrasse&tolat=47.41743549&tolon=8.54508432","7","J","0 - 5 Jahre","Federwippe,  Schwingwippe, Kleinkinderschaukel, Rutsche, Sandbereich, Sandspielgeräte, Tischtennistisch","","","Kleine Parkanlage","Spielplatz","Spiel- und Liegewiese","0007","POINT (2683496 1252436)"
"","Neunbrunnenstrasse","","","","","Grün Stadt Zürich","202412161130","","Tiefbau- und Entsorgungsdepartement (TED)","","","","","0_","Cafe_Parkplatz_Besuchenden-WC_Behinderten-WC_Kiosk<BR>Bancomat","","","Spielplatz","","Neunbrunnenanlage","","2530.0000000000","","","","","","","","","","","","","","","","8050","sp008","","1","","Grünzug am Bach, Balanciergerät, Schaukel, Sitzbänke, Brunnen, Baumbestand","+41 44 412 06 77","","","","","","Neunbrunnenstrasse","https://www.zvv.ch/de/fahrplan-und-informationen/fahrplan.html?toname=Neunbrunnenstrasse&tolat=47.41705144&tolon=8.54291622","8","J","0-5 Jahre","Balanciergerät, Schaukel","","","alter Baumbestand, von Strasse gut abgeschirmt","Spielplatz","Grünzug am Bach","0008","POINT (2683333 1252391)"
"","Hallwylstreasse / Schimmelstrasse","","","","","Grün Stadt Zürich","202412161130","","Tiefbau- und Entsorgungsdepartement (TED)","","","","","0__","Spielplatz","","","Spielplatz","","Hallwylstreasse / SchimmelstrasseHallwylstreasse / Schimmelstrasse","","2531.0000000000","","","","","","","","","","","","","","","Zürich","","sp9624","","0","","","+41 44 412 46 13","","","","","","Hallwylstreasse / Schimmelstrasse","https://www.zvv.ch/de/fahrplan-und-informationen/fahrplan.html?toname=Zürich, Hallwylstrasse 84","","N","","","","","","","","TAZ001","POINT (2682144 1247107)"
"","Erismannstrasse 2-16","","","","","Grün Stadt Zürich","202412161130","","Tiefbau- und Entsorgungsdepartement (TED)","","","","","","","","","Spielplatz","","Erismannhof","","2532.0000000000","","","","","","","","","","","","","","","","8004","sp107","","1","","Spiel- und Liegewiese, Brettschaukel, Sandkasten, Kletteranlage mit Rutsche, Tischtennistisch, Sitzbänke, Spielanlage im Innenhof","+41 44 461 21 17","","","","","","","https://www.zvv.ch/de/fahrplan-und-informationen/fahrplan.html?toname=Erismannstrasse%202-16&tolat=47.37958975&tolon=8.51962598","107","J","0 - 5 Jahre","Brettschaukel, Sandkasten, Kletteranlage mit Rutsche, Tischtennistisch","","","Spielanlage im Innenhof","Spielplatz","Spiel- und Liegewiese","0107","POINT (2681633 1248201.9)"
"","Heuelstrasse","","","","","Grün Stadt Zürich","202412161130","","Tiefbau- und Entsorgungsdepartement (TED)","","","","","","","","","Spielplatz","","Sonnenberg-Terrasse","","2533.0000000000","","","","","","","","","","","","","","","","8032","sp050","","1","","Kletteranlage, Brettschaukel, Sandbereich, Spielhaus, Federwippe, Balkenwippe,  Hangrutsche, Sitzbänke, Brunnen, Pergola, Aussicht","+41 44 422 54 97","","","","","","","https://www.zvv.ch/de/fahrplan-und-informationen/fahrplan.html?toname=Heuelstrasse&tolat=47.36807643&tolon=8.56723380","50","J","0 - 5 Jahre","Kletteranlage, Brettschaukel, Sandbereich, Spielhaus, Federwippe, Balkenwippe,  Hangrutsche","","","wunderschöne Aussicht auf die Stadt","Spielplatz","Quartierspielplatz","0050","POINT (2685246.2 1246972.5)"
"","Schweighofstrasse/Döltschiweg","","","","","Grün Stadt Zürich","202412161130","","Tiefbau- und Entsorgungsdepartement (TED)","","","","","","","","","Spielplatz","","Känguruhwiese","","2534.0000000000","","","","","","","","","","","","","","","","8055","sp076","","1","","Spiel- und Liegewiese, Hartplatz, Schlittelhügel, Federwippe, Sandkasten, Kletteranlage mit Rutsche, Korbschaukel, Sitzbänke, Brunnen,Streuobstwiese","+41 44 492 71 41","","","","","","","https://www.zvv.ch/de/fahrplan-und-informationen/fahrplan.html?toname=Schweighofstrasse/Döltschiweg&tolat=47.36370639&tolon=8.50133782","76","J","0 - 16 Jahre","Federwippe, Sandkasten, Kletteranlage mit Rutsche, Korbschaukel","","","grosszügige Parkanlage mit Streuobstwiese","Spielplatz","Spiel- und Liegewiese, Hartplatz, Schlittelhügel","0076","POINT (2680275.8 1246417.2)"
"","Friesenbergsstrasse/Wasserschöpfi","","","","","Grün Stadt Zürich","202412161130","","Tiefbau- und Entsorgungsdepartement (TED)","","","","","","","","","Spielplatz","","Wasserschöpfi","","2535.0000000000","","","","","","","","","","","","","","","","8055","sp075","","1","","Spiel- und Liegewiese, Pumpe, Tischtennistisch, ZüriWC, Sitzbänke","+41 44 492 71 41","","","","","","","https://www.zvv.ch/de/fahrplan-und-informationen/fahrplan.html?toname=Friesenbergsstrasse/Wasserschöpfi&tolat=47.36498746&tolon=8.50811424","75","J","0 - 5 Jahre","Pumpe, Tischtennistisch","","","kleine, übersichtliche Anlage","Spielplatz","Spiel- und Liegewiese","0075","POINT (2680785.8 1246566.6)"
"","Süsslerenstrasse","","","","","Grün Stadt Zürich","202412161130","","Tiefbau- und Entsorgungsdepartement (TED)","","","","","","","","","Spielplatz","","Süsslerenanlage","","2558.0000000000","","","","","","","","","","","","","","","","8047","sp113","","1","","Bachspielplatz, Spiel- und Liegewiese, Schlittelhügel, Hüpfteller, Federwippe, Kletteranlage,  Sandkasten, Brettschaukel, Hangrutsche, Balanciergerät, Tischtennistisch, Sitzbänke, Baumbestand","+41 44 431 57 61","","","","","","","https://www.zvv.ch/de/fahrplan-und-informationen/fahrplan.html?toname=Süsslerenstrasse&tolat=47.37620064&tolon=8.49376262","113","J","0 - 5 Jahre","Hüpfteller, Federwippe, Kletteranlage,  Sandkasten, Brettschaukel, Hangrutsche, Balanciergerät, Tischtennistisch","","","grosszügige Parkanlage mit altem Baumbestand","Spielplatz","Bachspielplatz, Spiel- und Liegewiese, Schlittelhügel","0113","POINT (2679685 1247798.5)"
"","Herzogenmühlestrasse","","","","","Grün Stadt Zürich","202412161130","","Tiefbau- und Entsorgungsdepartement (TED)","","","","","","","","","Spielplatz","","Herzogenmühle","","2559.0000000000","","","","","","","","","","","","","","","","8051","sp016","","1","","Spiel- und Liegewiese, Bach, Sandanlage, Arena, Sandbereich, Sandspielgerät, Sitzbänke, Wasseranschluss","+41 44 322 02 20","","","","","","","https://www.zvv.ch/de/fahrplan-und-informationen/fahrplan.html?toname=Herzogenmühlestrasse&tolat=47.40541743&tolon=8.57258528","16","J","0-5 Jahre","Sandbereich, Sandspielgerät","","","kleine Grünanlage am Bach","Spielplatz","Spiel- und Liegewiese, Bach, Sandanlage, Arena","0016","POINT (2685590.5 1251129.5)"
"","Muggenbühlstrasse 15","","","","","Grün Stadt Zürich","202412161130","","Tiefbau- und Entsorgungsdepartement (TED)","","","","","","","","","Spielplatz","","Muggenbühl","","2560.0000000000","","","","","","","","","","","","","","","","8038","sp082","","1","","Spiel- und Liegewiese, Hangrutsche, Drehkletterturm, Federwippe, Reck, Sandkasten, Sitzbänke","+41 44 482 10 03","","","","","","","https://www.zvv.ch/de/fahrplan-und-informationen/fahrplan.html?toname=Muggenbühlstrasse%2015&tolat=47.35043000&tolon=8.52647989","82","J","0 - 5 Jahre","Hangrutsche, Drehkletterturm, Federwippe, Reck, Sandkasten","","","ruhige, übersichtliche Spielanlage","Spielplatz","Spiel- und Liegewiese","0082","POINT (2682195.5 1244967.2)"
"","Zurlindenstrasse 232 (Spielplatz)","","","","","Grün Stadt Zürich","202412161130","","Tiefbau- und Entsorgungsdepartement (TED)","","","","","","","","","Spielplatz","","Zurlindenhof I","","2561.0000000000","","","","","","","","","","","","","","","","8003","sp062","","1","","Spiel- und Liegewiese, Spielhügel, Hangrutsche, Korbschaukel, Balanciergerät, Sandbereich, Kletterelement, Federwippe, Sitzbänke","+41 44 492 71 41","","","","","","","https://www.zvv.ch/de/fahrplan-und-informationen/fahrplan.html?toname=Zurlindenstrasse%20232%20(Spielplatz)&tolat=47.37590451&tolon=8.51367582","62","J","0 - 9 Jahre","Hangrutsche, Korbschaukel, Balanciergerät, Sandbereich, Kletterelement, Federwippe","","","grosszügiger, ruhiger Innenhof","Spielplatz","Spiel- und Liegewiese, Spielhügel","0062","POINT (2681189.2 1247786)"
"","Steinstrasse / Erlachstrasse","","","Das sind keine klassischen Spielplätze, aber da hat es Spielgeräte.<BR>Damit will man dieses Quartier aufwerten.<BR>","","Grün Stadt Zürich","202412161130","","Tiefbau- und Entsorgungsdepartement (TED)","","","","","0__","Spielplatz","","","Spielplatz","","Steinstrasse / ErlachstrasseSteinstrasse / Erlachstrasse","","2563.0000000000","","","","","","","","","","","","","","","","","sp9644","","0","","","+41 44 412 46 13","","","","","","Steinstrasse / Erlachstrasse","https://www.zvv.ch/de/fahrplan-und-informationen/fahrplan.html?toname=Zürich, Steinstrasse 33","","N","","","","","","","","TAZ006","POINT (2681688 1246823)"
"","Fritschi-/Badener-/Zypressenstrasse","","","","","Grün Stadt Zürich","202412161130","","Tiefbau- und Entsorgungsdepartement (TED)","","","","","","","","","Spielplatz","","Fritschiwiese","","2564.0000000000","","","","","","","","","","","","","","","","8003","sp061","","1","","Spielhügel,  Boulderwand, Planschbecken, Slackline, Pumpen, Brettschaukel, Drehkletterturm, Drehscheibe, Karussell, Seilbahn, Hangrutsche, Spielhaus, Brettschaukel, Tischtennistisch, Kletterelement, Sitzbänke, Feuerstellen, Spielanimation","+41 44 492 71 41","","","","","","","https://www.zvv.ch/de/fahrplan-und-informationen/fahrplan.html?toname=Fritschi-/Badener-/Zypressenstrasse&tolat=47.37604548&tolon=8.51203956","61","J","0 - 16 Jahre","Slackline, Pumpen, Brettschaukel, Drehkletterturm, Drehscheibe, Karussell, Seilbahn, Hangrutsche, Spielhaus, Brettschaukel, Planschbecken, Boulderwand, Tischtennistisch, Kletterelement","","","grosszügige, beliebte Parkanlage mit Planschbecken","Spielplatz","Spiel-  und Liegewiese, Spielhügel,  Boulderwand, Planschbecken","0061","POINT (2681065.5 1247800)"
"","Museumstrasse","","","","","Grün Stadt Zürich","202412161130","","Tiefbau- und Entsorgungsdepartement (TED)","","","","","","","","","Spielplatz","","Platzspitz","","2586.0000000000","","","","","","","","","","","","","","","","8001","sp060","","1","","Kiesplatz, Drehscheiben, Brettschaukel, Klettergerät, Balkenwippe, Schachspiel, Sitzbänke, historische Parkanlage, Baumbestand","+41 44 201 75 00","","","","","","","https://www.zvv.ch/de/fahrplan-und-informationen/fahrplan.html?toname=Museumstrasse&tolat=47.38030301&tolon=8.53934623","60","J","0 - 5 Jahre","Drehscheiben, Brettschaukel, Klettergerät, Balkenwippe, Schachspiel","","","historische Parkanlage mit schönem Baumbestand","Spielplatz","Kiesplatz","0060","POINT (2683121 1248301.9)"
"","Wolfbachtobelweg","","","","","Grün Stadt Zürich","202412161130","","Tiefbau- und Entsorgungsdepartement (TED)","","","","","","","","","Spielplatz","","Wolfbachtobel","","2587.0000000000","","","","","","","","","","","","","","","","8032","sp048","","1","","Spiel- und Liegewiese, Schotterrasen, Seilanlage, Spiegel, Brettschaukel, Hangrutsche, Seilkletteranlage, Sitzbänke, Blockhütte, Liegerost, Ausflugsziel, Bach","+41 44 422 54 97","","","","","","","https://www.zvv.ch/de/fahrplan-und-informationen/fahrplan.html?toname=Wolfbachtobelweg&tolat=47.37189959&tolon=8.56196083","48","J","0 - 9 Jahre","Seilanlage, Spiegel, Brettschaukel, Hangrutsche, Seilkletteranlage","","","Familienausflugsziel an einem Bachtobel mit Blockhütte","Spielplatz","Spiel- und Liegewiese, Schotterrasen","0048","POINT (2684842 1247391.9)"
"","Zollikerstrasse","Seeburgpark","","Quartierpark mit altem Baumbestand und ausgedehnten Wiesenflächen.","","Grün Stadt Zürich","202412161130","","Tiefbau- und Entsorgungsdepartement (TED)","","","","","0_","Spielplatz_Quartierpark mit altem Baumbestand und ausgedehnten Wiesenflächen.","","","Spielplatz","","Seeburgpark","","2588.0000000000","","","","","","","","","","","","","","","Zürich","","sp9572","","1","","","+41 44 412 46 13","","","","","","Zollikerstrasse","https://www.zvv.ch/de/fahrplan-und-informationen/fahrplan.html?toname=Zürich%2C%20Zollikerstrasse&tolat=47.36056073&tolon=8.55613673","","N","","","","","","","","0153","POINT (2684420 1246125)"
"","Saatlenstrasse","","","","","Grün Stadt Zürich","202412161130","","Tiefbau- und Entsorgungsdepartement (TED)","","","","","","","","","Spielplatz","","Saatlen-Grünzug","","2589.0000000000","","","","","","","","","","","","","","","","8051","sp014","","1","","Sandanlage, Sandbereich, Matschtisch, Sandspielgeräte, Kletteranlage mit Rutsche, Brettschaukel, Sitzbänke, Grünzug","+41 44 322 02 20","","","","","","","https://www.zvv.ch/de/fahrplan-und-informationen/fahrplan.html?toname=Saatlenstrasse&tolat=47.40597415&tolon=8.56831295","14","J","0-5 Jahre","Sandbereich, Matschtisch, Sandspielgeräte, Kletteranlage mit Rutsche, Brettschaukel","","","Grünzug","Spielplatz","Sandanlage","0014","POINT (2685267 1251186.8)"
"","","","","","","Grün Stadt Zürich","202503051124","","Tiefbau- und Entsorgungsdepartement (TED)","","","","90","","Balanciergerät","","","Spielplatz","","SchörliSchörli","","2590.0000000000","","","","","","","","","","","","","","","Zürich","8051","sp9655","","1","Schörlistrasse","","044 412 12 35","","","","","","https://www.zvv.ch/de/fahrplan-und-informationen/haltestellenfahrplan.html","Dreispitz","","N","3 - 15","Balanciergerät","","","Spielplatz auf dem Ueberlandpark","Spielplatz","Balanciergerät","0127","POINT (2684882.5 1251130.6)"
"","Hardau","","","","","Grün Stadt Zürich","202412161130","","Tiefbau- und Entsorgungsdepartement (TED)","","","","","","","","","Spielplatz","","Hardaupark","","2591.0000000000","","","","","","","","","","","","","","","","8004","sp173","","1","","Spiel- und Liegewiese, Liegerost aus Holz, Hartplatz, Balanciergerät, Matschtisch, Rotationsgerät, Brettschaukel, Sandbereich, Pumpe, Drehteller, Feuerstelle, Sitzbänke, Züri-WC, Basketball, Brunnen, Sonnenschirm, Parkanlage","+41 44 461 21 17","","","","","","","https://www.zvv.ch/de/fahrplan-und-informationen/fahrplan.html?toname=Hardau&tolat=47.37953735&tolon=8.50962955","173","J","0 - 9 Jahre","Balanciergerät, Matschtisch, Rotationsgerät, Brettschaukel, Sandbereich, Pumpe, Drehteller","","","moderne, grosszügige Parkanlage","Spielplatz","Spiel- und Liegewiese, Liegerost aus Holz, Hartplatz","0173","POINT (2680878.2 1248185.6)"
"","Stauffacher-/St. Jakobstrasse","","","","","Grün Stadt Zürich","202412161130","","Tiefbau- und Entsorgungsdepartement (TED)","","","","","","","","","Spielplatz","","Lutherwiese","","2592.0000000000","","","","","","","","","","","","","","","","8004","sp114","","1","","Spiel- und Liegewiese, Kombischaukel, Federwippe, Korbschaukel, Kletteranlage mit Rutsche, Sandbereich, ZüriWC, Sitzbänke","+41 44 461 21 17","","","","","","","https://www.zvv.ch/de/fahrplan-und-informationen/fahrplan.html?toname=Stauffacher-/St.%20Jakobstrasse&tolat=47.37456062&tolon=8.52828930","114","J","0 - 5 Jahre","Kombischaukel, Federwippe, Korbschaukel, Kletteranlage mit Rutsche, Sandbereich","","","Quartierspielplatz","Spielplatz","Spiel- und Liegewiese","0114","POINT (2682294.8 1247651.8)"
"","Limmatstrasse 176, 8005 Zürich","","","","","Grün Stadt Zürich","202412161130","","Tiefbau- und Entsorgungsdepartement (TED)","","","","176","","","","","Spielplatz","","SH Kornhaus BSH Kornhaus B","","2593.0000000000","","","","","","","","","","","","","","","Zürich","8005","sp9650","","1","Limmatstrasse","","+41 44 412 46 13","","","","","","Zürich, Limmatplatz","https://online.fahrplaninfo.zvv.ch/frame_hst3.php?lang=de&hstNr=1557&hstName=","","J","0 - 9 Jahre","Balanciergerät, Sandbereich, Sandspielgerät, Sandspielgeräte, Pumpe, Seilanlage, Wasserspiel","","","","","","0539","POINT (2682458 1248998.9)"
"","Irringersteig","","","","","Grün Stadt Zürich","202412161130","","Tiefbau- und Entsorgungsdepartement (TED)","","","","","","","","","Spielplatz","","Irringersteig","","2615.0000000000","","","","","","","","","","","","","","","","8006","sp172","","1","","Spiel- und Liegewiese, Kletterelement, Sandkasten, Seilanlage mit Rutsche, Balanciergerät, Kletterelement, Sitzbänke","+41 44 361 63 18","","","","","","","https://www.zvv.ch/de/fahrplan-und-informationen/fahrplan.html?toname=Irringersteig&tolat=47.37953993&tolon=8.55139491","172","J","0 - 9 Jahre","Kletterelement, Sandkasten, Seilanlage mit Rutsche, Balanciergerät, Kletterelement","","","Quartierspielplatz","Spielplatz","Spiel- und Liegewiese","0172","POINT (2684032 1248229.9)"
"","Schweighofstr./Staudenweg/ Bachtobelstr.","","","","","Grün Stadt Zürich","202412161130","","Tiefbau- und Entsorgungsdepartement (TED)","","","","","","","","","Spielplatz","","Murmeliwiese","","2616.0000000000","","","","","","","","","","","","","","","","8045","sp080","","1","","Spiel- und Liegewiese, Velopark, Kletteranlage mit Rutsche, Wasserförderanlage, Sandbereich, Hängematte, Korbschaukel, Tischtennistisch, Sitzbänke, Pergola, Bach","+41 44 461 21 17","","","","","","","https://www.zvv.ch/de/fahrplan-und-informationen/fahrplan.html?toname=Schweighofstr./Staudenweg/%20Bachtobelstr.&tolat=47.35753805&tolon=8.50845672","80","J","0 - 9 Jahre","Kletteranlage mit Rutsche, Wasserförderanlage, Sandbereich, Hängematte, Korbschaukel, Tischtennistisch","","","schöner Bachspielplatz mit Velopark","Spielplatz","Spiel- und Liegewiese, Velopark","0080","POINT (2680823 1245738.8)"
"","Katzenseestrasse, am Südufer des Katzensees","","","Der Spielplatz ist temporär geschlossen.","","Grün Stadt Zürich","202412161130","","Tiefbau- und Entsorgungsdepartement (TED)","","","","","0__","_NULL","","","Spielplatz","","Katzensee (Seebad)","","2617.0000000000","","","","","","","","","","","","","","","","8046","sp121","","1","","Spiel- und Liegewiese, Sandanlage, Brettschaukel, Sandbereich, Korbschaukel, Sandspielgeräte, Kletteranlage mit Rutsche, Sitzbänke,  Feuerstelle, Ufer","+41 44 371 05 13","","","","","","Katzenseestrasse, am Südufer des Katzensees","https://www.zvv.ch/de/fahrplan-und-informationen/fahrplan.html?toname=Zürich, Katzenseestrasse 200","121","J","0 - 5 Jahre","Brettschaukel, Sandbereich, Korbschaukel, Sandspielgeräte, Kletteranlage mit Rutsche","","","sehr schöne Lage, naturnahe Uferbereiche","Spielplatz in Badeanlage","Spiel- und Liegewiese, Sandanlage","0121","POINT (2679600 1253914)"
"","Althoosstrasse","","","","","Grün Stadt Zürich","202412161130","","Tiefbau- und Entsorgungsdepartement (TED)","","","","","","","","","Spielplatz","","Althoos","","2618.0000000000","","","","","","","","","","","","","","","","8046","sp012","","1","","Spiel- und Liegewiese, Sandbereich, Brettschaukel, Hüpfteller, Hangrutsche, Pergola, Sitzbänke","+41 44 371 05 13","","","","","","","https://www.zvv.ch/de/fahrplan-und-informationen/fahrplan.html?toname=Althoosstrasse&tolat=47.41046193&tolon=8.52144514","12","J","0 - 9 Jahre","Sandbereich, Brettschaukel, Hüpfteller, Hangrutsche","","","grosszügige Grünanlage","Spielplatz","Spiel- und Liegewiese","0012","POINT (2681723 1251635.9)"
"","Stiglenstrasse","","","","","Grün Stadt Zürich","202412161130","","Tiefbau- und Entsorgungsdepartement (TED)","","","","","0_","_NULL","","","Spielplatz","","Eichrain Tennisplatz","","2619.0000000000","","","","","","","","","","","","","","","","8052","sp132a","","1","","Kiesfläche, Federwippe, Sandbereich, Brettschaukel, Sitzbänke, Pergola, Tennisplatz","+41 44 412 06 77","","","","","","Stiglenstrasse","https://www.zvv.ch/de/fahrplan-und-informationen/fahrplan.html?toname=Stiglenstrasse&tolat=47.42892779&tolon=8.54825244","132a","J","0 - 5 Jahre","Federwippe, Sandbereich, Brettschaukel","","","kleine Spielanlage neben Tennisplatz","Spielplatz","Kiesfläche","0132A","POINT (2683717 1253717)"
"","Am Katzenbach, Katzenbachweg","","","","","Grün Stadt Zürich","202412161130","","Tiefbau- und Entsorgungsdepartement (TED)","","","","","0_","_NULL","","","Spielplatz","","Freizeitanlage Seebach","","2620.0000000000","","","","","","","","","","","","","","","","8052","sp164","","1","","Spiel- und Liegewiese, Federwippe, Rotationsgerät, Sitzbänke, kleine Spielanlage","+41 44 412 06 77","","","","","","Am Katzenbach, Katzenbachweg","https://www.zvv.ch/de/fahrplan-und-informationen/fahrplan.html?toname=Am%20Katzenbach,%20Katzenbachweg&tolat=47.42343904&tolon=8.54656090","164","J","0 - 5 Jahre","Federwippe, Rotationsgerät","","","kleine Spielanlage","Spielplatz","Spiel- und Liegewiese","0164","POINT (2683598 1253105)"
"","Döltschiweg 130 (Spielplatz)","","","","","Grün Stadt Zürich","202412161130","","Tiefbau- und Entsorgungsdepartement (TED)","","","","","","","","","Spielplatz","","GZ Heuried Erlebnisgarten","","2621.0000000000","","","","","","","","","","","","","","","","8055","sp074a","","1","","Tiergehege, Balanciergerät, Seilanlage, Kletterturm, Hängematte,  Rutsche, Korbschaukel, Partnerschaukel, Wasserförderanlage, Tischtennistisch, Sitzbänke, Feuerstellen, Gemeinschaftszentrum mit Tieren,  grosszügige Anlage","+41 44 492 71 41","","","","","","","https://www.zvv.ch/de/fahrplan-und-informationen/fahrplan.html?toname=Döltschiweg%20130%20(Spielplatz)&tolat=47.36727637&tolon=8.50306478","74a","J","0 - 16 Jahre","Balanciergerät, Seilanlage, Kletterturm, Hängematte,  Rutsche, Korbschaukel, Partnerschaukel, Wasserförderanlage, Tischtennistisch","","","Gemeinschaftszentrum mit Tieren,  grosszügige Anlage","GZ mit Spielplatz","Tiergehege","0074A","POINT (2680401 1246815.9)"
"","Weststrasse / Werdstrasse","","","","","Grün Stadt Zürich","202412161130","","Tiefbau- und Entsorgungsdepartement (TED)","","","","","0__","Spielplatz_Das sind keine klassischen Spielplätze, aber da hat es Spielgeräte.<br>Damit will man dieses Quartier aufwerten.<br>","","","Spielplatz","","Weststrasse / Werdstrasse","","2643.0000000000","","","","","","","","","","","","","","","","","sp9643","","0","","","+41 44 412 46 13","","","","","","Weststrasse / Werdstrasse","https://www.zvv.ch/de/fahrplan-und-informationen/fahrplan.html?toname=Zürich, Weststrasse 20","","N","","","","","","","","TAZ003","POINT (2681955 1247062)"
"","","","","","","Grün Stadt Zürich","202412191112","","Tiefbau- und Entsorgungsdepartement (TED)","","","","","","","","","Spielplatz","","TC Mythenquai 2TC Mythenquai 2","","2644.0000000000","","","","","","","","","","","","","","","","","sp9651","","1","","","","","","","","","","","","J","10 - 99","Calisthenics","","","","","","SPA002","POINT (2682769 1245050.1)"
"","Riedgrabenweg","","","","","Grün Stadt Zürich","202412161130","","Tiefbau- und Entsorgungsdepartement (TED)","","","","","","","","","Spielplatz","","Schörli-Grünzug","","2645.0000000000","","","","","","","","","","","","","","","","8050","sp011","","1","","Spiel- und Liegewiese, Kletteranlage, Balanciergerät, Hangrutsche, Kletteranlage mit Rutsche, Brettschaukel, Federwippe, Sandbereich, Sitzbänke","+41 44 322 02 20","","","","","","","https://www.zvv.ch/de/fahrplan-und-informationen/fahrplan.html?toname=Riedgrabenweg&tolat=47.41010788&tolon=8.56021211","11","J","0 - 9 Jahre","Kletteranlage, Balanciergerät, Hangrutsche, Kletteranlage mit Rutsche, Brettschaukel, Federwippe, Sandbereich","","","grosszügiger Grünzug","Spielplatz","Spiel- und Liegewiese","0011","POINT (2684649.2 1251637.6)"
"","Ampèrestrasse","","","","","Grün Stadt Zürich","202412161130","","Tiefbau- und Entsorgungsdepartement (TED)","","","","","","","","","Spielplatz","","GZ Wipkingen","","2646.0000000000","","","","","","","","","","","","","","","","8037","sp031","","1","","Spiel- und Liegewiese, Planschbecken, Wasserspiel, Kletteranlage mit Rutsche, Brettschaukel, Korbschaukel, Sandbereich, Sandspielgerät, Seilanlage, Kletterelement, Kletteranlage, Sitzbänke, Brunnen, Gemeinschaftszentrum, Cafe, Limmat, Tiere","+41 44 361 63 18","","","","","","","https://www.zvv.ch/de/fahrplan-und-informationen/fahrplan.html?toname=Ampèrestrasse&tolat=47.39284361&tolon=8.52015986","31","J","0 - 16 Jahre","Wasserspiel, Kletteranlage mit Rutsche, Brettschaukel, Korbschaukel, Sandbereich, Sandspielgerät, Seilanlage, Kletterelement, Kletteranlage","","","Gemeinschaftszentrum mit Cafe direkt an der Limmat, Kinderbauernhof mit Tieren","GZ mit Spielplatz","Spiel- und Liegewiese, Planschbecken","0031","POINT (2681653 1249675.9)"
"","Triemlifussweg","","","","","Grün Stadt Zürich","202412161130","","Tiefbau- und Entsorgungsdepartement (TED)","","","","","","","","","Spielplatz","","Triemlifussweg","","2647.0000000000","","","","","","","","","","","","","","","","8055","sp070","","1","","Grünzug, Brettschaukel, Sandbereich,  Röhre, Brettschaukel, Sitzbänke","+41 44 431 57 61","","","","","","","https://www.zvv.ch/de/fahrplan-und-informationen/fahrplan.html?toname=Triemlifussweg&tolat=47.37025221&tolon=8.49932413","70","J","0 - 5 Jahre","Brettschaukel, Sandbereich,  Röhre, Brettschaukel","","","Ruhige Parkanlage","Spielplatz","Grünzug","0070","POINT (2680114 1247142.9)"
"","Schlossgasse/Wiedingstrasse","","","","","Grün Stadt Zürich","202412161130","","Tiefbau- und Entsorgungsdepartement (TED)","","","","","","","","","Spielplatz","","Kollerwiese","","2648.0000000000","","","","","","","","","","","","","","","","8003","sp072","","1","","Spiel- und Liegewiese, Schlittelhang, Brettschaukel, Balanciergerät, Kletterelement, Findlinge, Sandbereich, Bockrutsche, Kletteranlage mit Rutsche, Federwippe, Züri-WC, Trinkbrunnen, Spielanimation,  Spielschiff","+41 44 461 21 17","","","","","","","https://www.zvv.ch/de/fahrplan-und-informationen/fahrplan.html?toname=Schlossgasse/Wiedingstrasse&tolat=47.36821803&tolon=8.51915383","72","J","0 - 16 Jahre","Brettschaukel, Balanciergerät, Kletterelement, Findlinge, Sandbereich, Bockrutsche, Kletteranlage mit Rutsche, Federwippe","","","wunderschönes Spielschiff","Spielplatz","Spiel- und Liegewiese, Schlittelhang","0072","POINT (2681614.8 1246937.1)"
"","Stöckenhaldenweg","","","","","Grün Stadt Zürich","202412161130","","Tiefbau- und Entsorgungsdepartement (TED)","","","","","","","","","Spielplatz","","Buchholz","","2649.0000000000","","","","","","","","","","","","","","","","8053","sp053","","1","","Spiel- und Liegewiese, Spielhügel, Waldspielplatz, Findlinge, Federwippe, Sandbereich,  Pumpen, Schwingwippe, Brettschaukel,  Kletterelement, Hangrutsche, Riesenschaukel, Kletteranlage, Tischtennistisch, WC, Sitzbänke, Feuerstellen, Ausflugsziel","+41 44 381 01 00","","","","","","","https://www.zvv.ch/de/fahrplan-und-informationen/fahrplan.html?toname=Stöckenhaldenweg&tolat=47.36140286&tolon=8.58440542","53","J","0 - 16 Jahre","Findlinge, Federwippe, Sandbereich,  Pumpen, Schwingwippe, Brettschaukel,  Kletterelement, Hangrutsche, Riesenschaukel, Kletteranlage mit Rutsche, Tischtennistisch","","","beliebtes Ausflugsziel","Spielplatz","Spiel- und Liegewiese, Spielhügel, Waldspielplatz","0053","POINT (2686554 1246249.4)"
"","Letzigraben/Badener-/Brahmsstrasse","","","","","Grün Stadt Zürich","202412161130","","Tiefbau- und Entsorgungsdepartement (TED)","","","","","","","","","Spielplatz","","Heiligfeld","","2650.0000000000","","","","","","","","","","","","","","","","8003","sp105","","1","","Spiel- und Liegewiese, Kletterfelsen, Kiesplatz, Kletteranlage mit Rutsche, Kletterelement, Sandbereich, Wasserspiel, Brettschaukel, Sitzbänke, Brunnen, Baumbestand","+41 44 492 71 41","","","","","","","https://www.zvv.ch/de/fahrplan-und-informationen/fahrplan.html?toname=Letzigraben/Badener-/Brahmsstrasse&tolat=47.37962830&tolon=8.50506093","105","J","0 - 5 Jahre","Kletteranlage mit Rutsche, Kletterelement, Sandbereich, Wasserspiel, Brettschaukel","","","grosszügige Spielanlage mit schönem Baumbestand","Spielplatz","Spiel- und Liegewiese, Kletterfelsen, Kiesplatz","0105","POINT (2680533 1248191.1)"
"","Hohensteinstrasse/Schwendenholz-/Hohensteinweg","","","","","Grün Stadt Zürich","202412161130","","Tiefbau- und Entsorgungsdepartement (TED)","","","","","","","","","Spielplatz","","Hohenstein","","2672.0000000000","","","","","","","","","","","","","","","","8055","sp145","","1","","Spiel- und Liegewiese, Kletterelement, Korbschaukel, Brettschaukel, Kletteranlage mit Rutsche, Klettergerät, Balanciergerät, Sitzbänke, Feuerstelle, Brunnen, Waldspielplatz,Waldlichtung, Aussicht","+41 44 492 71 41","","","","","","","https://www.zvv.ch/de/fahrplan-und-informationen/fahrplan.html?toname=Hohensteinstrasse/Schwendenholz-/Hohensteinweg&tolat=47.36114200&tolon=8.4872945","145","J","0 - 9 Jahre","Kletterelement, Korbschaukel, Brettschaukel, Kletteranlage mit Rutsche, Klettergerät, Balanciergerät","","","Waldspielplatz in schöner Waldlichtung, Aussicht","Spielplatz","Spiel- und Liegewiese","0145","POINT (2679219 1246117.9)"
"","Hard-/Bullingerstrasse","","","","","Grün Stadt Zürich","202412161130","","Tiefbau- und Entsorgungsdepartement (TED)","","","","","","","","","Spielplatz","","Bullingerhof","","2673.0000000000","","","","","","","","","","","","","","","","8004","sp106","","1","","Spiel- und Liegewiese, grosse Kiesfläche, Spielhügel, Sandkasten, Kletteranlage mit Rutsche, Bockrutsche, Federwippe, Pendelschaukel, Wasserförderanlage, Brettschaukel, Tischtennistisch, Sitzbänke, Planschbecken, Brunnen, Züri-WC, Baumbestand","+41 44 461 21 17","","","","","","","https://www.zvv.ch/de/fahrplan-und-informationen/fahrplan.html?toname=Hard-/Bullingerstrasse&tolat=47.37944615&tolon=8.51379470","106","J","0 - 9 Jahre","Sandkasten, Kletteranlage mit Rutsche, Bockrutsche, Federwippe, Pendelschaukel, Wasserförderanlage, Brettschaukel, Tischtennistisch","","","grosszügige Parkanlage mit altem Baumbestand","Spielplatz","Spiel- und Liegewiese, grosse Kiesfläche, Spielhügel","0106","POINT (2681192.8 1248179.9)"
"","Scheideggstrasse","","","","","Grün Stadt Zürich","202412161130","","Tiefbau- und Entsorgungsdepartement (TED)","","","","","","","","","Spielplatz","","Rieterpark - Scheideggstrasse","","2674.0000000000","","","","","","","","","","","","","","","","8002","sp078b","","1","","Spiel- und Liegewiese, Sandbereich, Federwippe, Brettschaukel, Bockrutsche, Sandkasten, Sitzbänke, grosszügige, historische Parkanlage, Museum Rietberg","+41 44 201 75 00","","","","","","","https://www.zvv.ch/de/fahrplan-und-informationen/fahrplan.html?toname=Scheideggstrasse&tolat=47.35636476&tolon=8.52943641","78b","J","0 - 5 Jahre","Sandbereich, Federwippe, Brettschaukel, Bockrutsche, Sandkasten","","","grosszügige, historische Parkanlage, Museum Rietberg","Spielplatz","Spiel- und Liegewiese","0078B","POINT (2682409.5 1245630.1)"
"","Bauherrenstrasse","","","","","Grün Stadt Zürich","202412161130","","Tiefbau- und Entsorgungsdepartement (TED)","","","","","","","","","Spielplatz","","Sonnegg/Bauherrenstrasse","","2675.0000000000","","","","","","","","","","","","","","","","8049","sp092","","1","","grosse, terrassierte Kiesfläche, Rutsche, Brettschaukel, Sandbereich, Federwippe, Hüpfteller, Sitzbänke, Aussicht","+41 44 344 14 00","","","","","","","https://www.zvv.ch/de/fahrplan-und-informationen/fahrplan.html?toname=Bauherrenstrasse&tolat=47.40155094&tolon=8.49774121","92","J","0 - 5 Jahre","Rutsche, Brettschaukel, Sandbereich, Federwippe, Hüpfteller","","","ruhig gelegene Anlage mit schöner Aussicht","Spielplatz","grosse, terrassierte Kiesfläche","0092","POINT (2679947.5 1250620.8)"
"","Schürbungert/Steinkluppenweg/Anna Heer Strasse","","","","","Grün Stadt Zürich","202412161130","","Tiefbau- und Entsorgungsdepartement (TED)","","","","","","","","","Spielplatz","","Steinkluppenanlage","","2676.0000000000","","","","","","","","","","","","","","","","8057","sp021","","1","","Spiel- und Liegewiese, Brettschaukel, Kletteranlage mit Rutsche, Sandbereich, Brunnen,  Sitzbänke, Rollschuhbahn","+41 44 361 63 18","","","","","","","https://www.zvv.ch/de/fahrplan-und-informationen/fahrplan.html?toname=Schürbungert/Steinkluppenweg/Anna%20Heer%20Strasse&tolat=47.40087611&tolon=8.540","21","J","0-5 Jahre","Brettschaukel, Kletteranlage mit Rutsche, Sandbereich","","","Rollschuhbahn","Spielplatz","Spiel- und Liegewiese","0021","POINT (2683151 1250589.9)"
"","Seestrasse","","","","","Grün Stadt Zürich","202412161130","","Tiefbau- und Entsorgungsdepartement (TED)","","","","","","","","","Spielplatz","","Wollishofen (Strandbad)","","2677.0000000000","","","","","","","","","","","","","","","","8038","sp180","","1","","Spiel- und Liegewiese, Brettschaukel, Sitzbänke, Spielanlage","+41 44 482 10 03","","","","","","","https://www.zvv.ch/de/fahrplan-und-informationen/fahrplan.html?toname=Seestrasse&tolat=47.34077929&tolon=8.53789341","180","J","0 - 9 Jahre","Brettschaukel","","","Spielanlage in Badeanlage. Öffnungszeiten berücksichtigen!","Spielplatz in Badeanlage","Spiel- und Liegewiese","0180","POINT (2683072.8 1243906.5)"
"","Waidbadstrasse","","","","","Grün Stadt Zürich","202412161130","","Tiefbau- und Entsorgungsdepartement (TED)","","","","","","","","","Spielplatz","","Waidbad","","2678.0000000000","","","","","","","","","","","","","","","","8037","sp089","","1","","Spiel- und Liegewiese, Balkenwippe, Brettschaukel, Balanciergerät, Balanciergerät, Kletterelement, Pumpe,  Wasserspiel, Kletterelement, Brettschaukel, Sitzbänke, Feuerstellen, Waldrand, Ausflugsziel","+41 44 344 14 00","","","","","","","https://www.zvv.ch/de/fahrplan-und-informationen/fahrplan.html?toname=Waidbadstrasse&tolat=47.40319042&tolon=8.51537593","89","J","0 - 9 Jahre","Balkenwippe, Brettschaukel, Balanciergerät, Balanciergerät, Kletterelement, Pumpe,  Wasserspiel, Kletterelement, Brettschaukel","","","ruhig gelegener Spielplatz am Waldrand neben Tennisanlage Waidberg, beliebtes Ausflugsziel","Spielplatz","Spiel- und Liegewiese","0089","POINT (2681276 1250821.1)"
"","Bullingerstrasse/ Hardauweg","","","","","Grün Stadt Zürich","202412161130","","Tiefbau- und Entsorgungsdepartement (TED)","","","","","","","","","Spielplatz","","Hardau","","2701.0000000000","","","","","","","","","","","","","","","","8004","sp125","","1","","Kiesplatz, Weidendschungel, Wasserförderanlage, Stangenlabyrinth, Balanciergerät, Hängematte, Sandbereich, Korbschaukel,  Pumpe, Kletteranlage, Rutsche, Sitzbänke","+41 44 461 21 17","","","","","","","https://www.zvv.ch/de/fahrplan-und-informationen/fahrplan.html?toname=Bullingerstrasse/%20Hardauweg&tolat=47.38298665&tolon=8.50936222","125","J","0 - 9 Jahre","Wasserförderanlage, Stangenlabyrinth, Balanciergerät, Hängematte, Sandbereich, Korbschaukel,  Pumpe, Kletteranlage mit Rutsche","","","Quartierspielplatz","Spielplatz","Kiesplatz, Weidendschungel","0125","POINT (2680852.8 1248568.9)"
"","Zeuner-/Kyburg-/Landenbergstrasse","","","","","Grün Stadt Zürich","202412161130","","Tiefbau- und Entsorgungsdepartement (TED)","","","","","","","","","Spielplatz","","Landenberganlage","","2702.0000000000","","","","","","","","","","","","","","","","8037","sp032","","1","","Spiel- und Liegewiese, Kletteranlage mit Rutsche, Sandbereich, Federwippe, Brettschaukel, Tischtennistisch, Sitzbänke, Baumbestand","+41 44 361 63 18","","","","","","","https://www.zvv.ch/de/fahrplan-und-informationen/fahrplan.html?toname=Zeuner-/Kyburg-/Landenbergstrasse&tolat=47.39209294&tolon=8.52729748","32","J","0 - 9 Jahre","Kletteranlage mit Rutsche, Sandbereich, Federwippe, Brettschaukel, Tischtennistisch","","","grosszügig Parkanlage mit altem Baumbestand","Spielplatz","Spiel- und Liegewiese","0032","POINT (2682193 1249599.9)"
"6","Eigenheimstrasse / Heimatstrasse 6","Eigenheimstrasse / Heimatstrasse","","","","Grün Stadt Zürich","202412161130","","Tiefbau- und Entsorgungsdepartement (TED)","","","","","0_","Spielplatz","","","Spielplatz","","Eigenheimstrasse / HeimatstrasseEigenheimstrasse / Heimatstrasse","","2703.0000000000","","","","","","","","","","","","","","","Zürich","","sp9576","","1","","","+41 44 412 46 13","","","","","","Eigenheimstrasse / Heimatstrasse 6","https://www.zvv.ch/de/fahrplan-und-informationen/fahrplan.html?toname=Zürich%2C%20Eigenheimstrasse%20/%20Heimatstrasse%206&tolat=47.35402358&tolon=8.5","","N","Spielplatznummer: 171","","","","","","","0167","POINT (2684271 1245396)"
"","Sirius-/Hochstrasse","","","","","Grün Stadt Zürich","202412161130","","Tiefbau- und Entsorgungsdepartement (TED)","","","","","","","","","Spielplatz","","Siriuswiese","","2704.0000000000","","","","","","","","","","","","","","","","8044","sp043","","1","","Spiel- und Liegewiese, Sandbereich, Balanciergerät, Rutsche, Klettergerät, Brettschaukel, Federwippe,  Korbschaukel, Kletterturm, Pumpen, Sitzbänke, Brunnen","+41 44 361 63 18","","","","","","","https://www.zvv.ch/de/fahrplan-und-informationen/fahrplan.html?toname=Sirius-/Hochstrasse&tolat=47.38079112&tolon=8.55281600","43","J","0 - 9 Jahre","Sandbereich, Balanciergerät, Rutsche, Klettergerät, Brettschaukel, Federwippe,  Korbschaukel, Kletterturm, Pumpen","","","Einzigartiger Quartierspielplatz","Spielplatz","Spiel- und Liegewiese","0043","POINT (2684137.2 1248370.5)"
"","Zurlindenstrasse 235","","","","","Grün Stadt Zürich","202412161130","","Tiefbau- und Entsorgungsdepartement (TED)","","","","","","","","","Spielplatz","","Zurlindenhof II","","2705.0000000000","","","","","","","","","","","","","","","","8003","sp063","","1","","Spiel- und Liegewiese, Sandbereich, Seilanlage mit Rutsche, Balanciergerät, Brettschaukel, Sitzbänke","+41 44 492 71 41","","","","","","","https://www.zvv.ch/de/fahrplan-und-informationen/fahrplan.html?toname=Zurlindenstrasse%20235&tolat=47.37526598&tolon=8.51268960","63","J","0 - 9 Jahre","Sandbereich, Seilanlage mit Rutsche, Balanciergerät, Brettschaukel","","","ruhiger Innenhof mit Kinderhort und -garten","Spielplatz","Spiel- und Liegewiese","0063","POINT (2681115.8 1247714)"
"","Loogartenstrasse/Am Suteracher","","","","","Grün Stadt Zürich","202412161130","","Tiefbau- und Entsorgungsdepartement (TED)","","","","","","","","","Spielplatz","","Am Suteracher","","2706.0000000000","","","","","","","","","","","","","","","","8048","sp097","","1","","Spiel- und Liegewiese, Federwippe, Rotationsgerät,  Brettschaukel, Hangrutsche, Sandbereich, Sitzbänke","+41 44 431 57 61","","","","","","","https://www.zvv.ch/de/fahrplan-und-informationen/fahrplan.html?toname=Loogartenstrasse/Am%20Suteracher&tolat=47.38964247&tolon=8.47290158","97","J","0 - 5 Jahre","Federwippe, Rotationsgerät,  Brettschaukel, Hangrutsche, Sandbereich","","","kleine, hügelige Spielanlage","Spielplatz","Spiel- und Liegewiese","0097","POINT (2678090 1249271.9)"
"","Schärenmoosstrasse","","","","","Grün Stadt Zürich","202412161130","","Tiefbau- und Entsorgungsdepartement (TED)","","","","","0_","_NULL","","","Spielplatz","","Schärenmooswiese","","2707.0000000000","","","","","","","","","","","","","","","","8052","sp004","","1","","Spiel- und Liegewiese, Kletteranlage mit Rutsche, Federwippe,  Balanciergerät, Brettschaukel, Sandbereich, Sitzbänke, Tisch","+41 44 412 06 77","","","","","","Schärenmoosstrasse","https://www.zvv.ch/de/fahrplan-und-informationen/fahrplan.html?toname=Schärenmoosstrasse&tolat=47.42129093&tolon=8.55200315","4","J","0 - 16 Jahre","Kletteranlage mit Rutsche, Federwippe,  Balanciergerät, Brettschaukel, Sandbereich","","","Umbau 2016","Spielplatz","Spiel- und Liegewiese","0004","POINT (2684012 1252872)"
"","Oetenbachgasse/Lindenhofstrasse","","","","","Grün Stadt Zürich","202412161130","","Tiefbau- und Entsorgungsdepartement (TED)","","","","","","","","","Spielplatz","","Urania","","2708.0000000000","","","","","","","","","","","","","","","","8001","sp064","","1","","Spiel- und Liegewiese, Sandbereich, Federwippe,  Hangrutsche, Klettergerät, Kombischaukel, Sitzbänke, WC, Aussicht","+41 44 201 75 00","","","","","","","https://www.zvv.ch/de/fahrplan-und-informationen/fahrplan.html?toname=Oetenbachgasse/Lindenhofstrasse&tolat=47.37354229&tolon=8.54115700","64","J","0 - 5 Jahre","Sandbereich, Federwippe,  Hangrutsche, Klettergerät, Kombischaukel","","","abwechslungsreiche Anlage mit Aussicht über die Altstadt","Spielplatz","Spiel- und Liegewiese","0064","POINT (2683268.2 1247552.1)"
"","Weststrasse 4","Postfach","","Das sind keine klassischen Spielplätze, aber da hat es Spielgeräte.<BR>Damit will man dieses Quartier aufwerten.<BR>","","Grün Stadt Zürich","202412161130","","Tiefbau- und Entsorgungsdepartement (TED)","","","","4","1__","Spielplatz","","","Spielplatz","","Manessestrasse / WeststrasseManessestrasse / Weststrasse","","2731.0000000000","","","","","","","","","","","","","","","Zürich","8036","sp9641","","0","Weststrasse","","+41 44 412 46 13","","","","","","Weststrasse 4","https://www.zvv.ch/de/fahrplan-und-informationen/fahrplan.html?toname=Zürich, Weststrasse 4","","N","","","","","","Kunstelement","","TAZ002","POINT (2682029 1247045)"
"","Im Schaber","","","","","Grün Stadt Zürich","202412161130","","Tiefbau- und Entsorgungsdepartement (TED)","","","","","","","","","Spielplatz","","Hasenrain","","2732.0000000000","","","","","","","","","","","","","","","","8047","sp144","","1","","Spiel- und Liegewiese, Klettergerät, Brettschaukel, Sitzbänke, Feuerstelle, Brunnen, Waldspielplatz, Waldlichtung, Aussicht","+41 44 431 57 61","","","","","","","https://www.zvv.ch/de/fahrplan-und-informationen/fahrplan.html?toname=Im%20Schaber&tolat=47.37536119&tolon=8.47859175","144","J","0 - 9 Jahre","Klettergerät, Brettschaukel","","","Waldspielplatz in Waldlichtung, schöne Aussicht","Spielwiese im Wald","Spiel- und Liegewiese","0144","POINT (2678540.5 1247689.9)"
"","Lindenhofstrasse","","","","","Grün Stadt Zürich","202412161130","","Tiefbau- und Entsorgungsdepartement (TED)","","","","","","","","","Spielplatz","","Lindenhof","","2733.0000000000","","","","","","","","","","","","","","","","8001","sp065","","1","","Kiesplatz, Brettschaukel, Sandbereich, Schachspiel, Sitzbänke, Brunnen, historische Anlage, Aussicht","+41 44 201 75 00","","","","","","","https://www.zvv.ch/de/fahrplan-und-informationen/fahrplan.html?toname=Lindenhofstrasse&tolat=47.37312377&tolon=8.54042216","65","J","0 - 5 Jahre","Brettschaukel, Sandbereich, Schachspiel","","","historische Anlage mit schönem Lindenbestand und Aussicht auf die Altstadt","Spielplatz","Kiesplatz","0065","POINT (2683213.2 1247504.9)"
"","Hegianwandweg 127","","","","","Grün Stadt Zürich","202412161130","","Tiefbau- und Entsorgungsdepartement (TED)","","","","127","0_","Spielplatz","","","Spielplatz","","Frauental TennisanlagFrauental Tennisanlag","sp0030","2734.0000000000","","","","","","","","","","","","","","","Zürich","8045","sp9105","","1","Hegianwandweg","sp0030","+41 44 461 21 17","","","","","","Hegianwandweg 127","https://www.zvv.ch/de/fahrplan-und-informationen/fahrplan.html?toname=Zürich%2C%20Hegianwandweg%20127&tolat=47.35423515&tolon=8.50690928","","N","","","","","","","","0030","POINT (2680711 1245370)"
"","Bellerivestrasse, Zürichhornanlage","","","","","Grün Stadt Zürich","202412161130","","Tiefbau- und Entsorgungsdepartement (TED)","","","","","","","","","Spielplatz","","Blatterwiese","","2735.0000000000","","","","","","","","","","","","","","","","8008","sp058","","1","","Spiel-  und Liegewiese, Boulderwand, Brettschaukel, Rutsche,  Wasserspiel, Sprossengerät, Kletterelement, Hängematte, Balanciergerät, Sandbereich,  Einpunktschaukel, Wasserspiel, Pumpe, ZüriWC,   Sitzbänke, Liegebänke","+41 44 422 54 97","","","","","","","https://www.zvv.ch/de/fahrplan-und-informationen/fahrplan.html?toname=Bellerivestrasse,%20Zürichhornanlage&tolat=47.35536216&tolon=8.55124783","58","J","0 - 9 Jahre","Brettschaukel, Rutsche,  Wasserspiel, Sprossengerät, Kletterelement, Hängematte, Balanciergerät, Sandbereich,  Einpunktschaukel, Wasserspiel, Pumpe","","","äusserst beliebter, einmaliger Spielplatz","Spielplatz","Spiel-  und Liegewiese, Boulderwand","0058","POINT (2684059 1245541.9)"
"","Gablerstrasse 20 (Spielplatz)","","","","","Grün Stadt Zürich","202412161130","","Tiefbau- und Entsorgungsdepartement (TED)","","","","","","","","","Spielplatz","","Quartiertreff Enge","","2736.0000000000","","","","","","","","","","","","","","","","8002","sp166","","1","","Spiel- und Liegewiese, Pumpe, Brettschaukel, Sandbereich, Matschtisch, Kletteranlage, Kletteranlage mit Rutsche, Korbschaukel, Spielhaus, Feuerstelle, Sitzbänke, Sonnenschirm, Quartiertreff, Café","+41 44 201 75 00","","","","","","","https://www.zvv.ch/de/fahrplan-und-informationen/fahrplan.html?toname=Gablerstrasse%2020%20(Spielplatz)&tolat=47.35972007&tolon=8.52948450","166","J","0 - 9 Jahre","Pumpe, Brettschaukel, Sandbereich, Matschtisch, Kletteranlage, Kletteranlage mit Rutsche, Korbschaukel, Spielhaus","","","Quartiertreff mit Café","Quartiertreff mit Spielplatz","Spiel- und Liegewiese","0166","POINT (2682408 1246003.2)"
"","Helvetiaplatz","","","","","Grün Stadt Zürich","202412161130","","Tiefbau- und Entsorgungsdepartement (TED)","","","","","","","","","Spielplatz","","Kanzleiwiese","","2737.0000000000","","","","","","","","","","","","","","","","8004","sp110","","1","","Spiel- und Liegewiese, grosse Kiesfläche, Korbschaukel, Kletteranlage mit Rutsche, Wasserförderanlage, Hangrutsche, Sitzbänke, ZüriWC, Spielanimation, Brunnen, krumme und schiefe Spielanlage, Steinpyramiede","+41 44 461 21 17","","","","","","","https://www.zvv.ch/de/fahrplan-und-informationen/fahrplan.html?toname=Helvetiaplatz&tolat=47.37587500&tolon=8.52593527","110","J","0 - 9 Jahre","Korbschaukel, Kletteranlage mit Rutsche, Wasserförderanlage, Hangrutsche","","","krumme und schiefe Spielanlage, Steinpyramiede","Spielplatz","Spiel- und Liegewiese, grosse Kiesfläche","0110","POINT (2682115 1247795.5)"
"","Buchenweg/Buchensteig","","","","","Grün Stadt Zürich","202412161130","","Tiefbau- und Entsorgungsdepartement (TED)","","","","","","","","","Spielplatz","","Buchenweg","","2761.0000000000","","","","","","","","","","","","","","","","8008","sp057","","1","","Spiel- und Liegewiese, Brettschaukel, Kletteranlage mit Rutsche, Tischtennistisch, Sitzbänke","+41 44 422 54 97","","","","","","","https://www.zvv.ch/de/fahrplan-und-informationen/fahrplan.html?toname=Buchenweg/Buchensteig&tolat=47.35743596&tolon=8.57016784","57","J","0 - 5 Jahre","Brettschaukel, Kletteranlage mit Rutsche, Tischtennistisch","","","kleine Grünanlage","Spielplatz","Spiel- und Liegewiese","0057","POINT (2685485 1245792.8)"
"","Lyrenweg","","","","","Grün Stadt Zürich","202412161130","","Tiefbau- und Entsorgungsdepartement (TED)","","","","","","","","","Spielplatz","","Buchlern Sportanlage","","2762.0000000000","","","","","","","","","","","","","","","","8048","sp104b","","1","","Kiesplatz, Balkenwippe, Brettschaukel, Spielhaus, Federwippe, Drehteller, Sitzbänke, Brunnen,  Café","+41 44 431 57 61","","","","","","","https://www.zvv.ch/de/fahrplan-und-informationen/fahrplan.html?toname=Lyrenweg&tolat=47.38089176&tolon=8.47692382","104b","J","0 - 5 Jahre","Balkenwippe, Brettschaukel, Spielhaus, Federwippe, Drehteller","","","übersichtliche Spielanlage neben Café bei Sportanlage","Spielplatz","Kiesplatz","0104B","POINT (2678406.5 1248303)"
"","Seestrasse 395","","","","","Grün Stadt Zürich","202412161130","","Tiefbau- und Entsorgungsdepartement (TED)","","","","395","0__https://zuerst.proinfirmis.ch/pois/detail/25632","","","","Spielplatz","spielbus@spielbus-paz.ch","Mobile Spielanimation PAZMobile Spielanimation PAZ","","2763.0000000000","","","","","","","","","","","","","","","Zürich","8038","sp12764","","1","Seestrasse","","+41 44 481 50 33","","","","","","Seestrasse 395","https://www.zvv.ch/de/fahrplan-und-informationen/fahrplan.html?tolat=47.3435493530404&tolon=8.53563814298258&toname=Zürich, Seestrasse 395","","N","","","","","","","","","POINT (2682898 1244212)"
"","Strickhofstrasse","","","","","Grün Stadt Zürich","202412161130","","Tiefbau- und Entsorgungsdepartement (TED)","","","","","","","","","Spielplatz","","Alfred-Altherr-Terrasse","","2764.0000000000","","","","","","","","","","","","","","","","8057","sp036","","1","","Sandanlage, grosse Kiesrasenfläche, Brettschaukel, Kleinkinderschaukel, Wasserspiel, Sandbereich, Brettschaukel, Sitzbänke, Wasserbecken, Brunnen, Feuerstellen, Aussicht","+41 44 361 63 18","","","","","","","https://www.zvv.ch/de/fahrplan-und-informationen/fahrplan.html?toname=Strickhofstrasse&tolat=47.39511906&tolon=8.55238259","36","J","0 - 5 Jahre","Brettschaukel, Kleinkinderschaukel, Wasserspiel, Sandbereich, Brettschaukel","","","Schöner Aussichtspunkt","Spielplatz","Sandanlage, grosse Kiesrasenfläche","0036","POINT (2684082 1249962.9)"
"","Eggweg","","","","","Grün Stadt Zürich","202412161130","","Tiefbau- und Entsorgungsdepartement (TED)","","","","","","","","","Spielplatz","","Auf der Egg","","2765.0000000000","","","","","","","","","","","","","","","","8038","sp084","","1","","Spielhügel, Korbschaukel, Hangrutsche, Sandbereich, Sitzkarussell, Federwippe, Sitzbänke, Aussicht, ruhige Lage","+41 44 482 10 03","","","","","","","https://www.zvv.ch/de/fahrplan-und-informationen/fahrplan.html?toname=Eggweg&tolat=47.34047634&tolon=8.53258330","84","J","0 - 5 Jahre","Korbschaukel, Hangrutsche, Sandbereich, Sitzkarussell, Federwippe","","","Aussicht, ruhige Lage","Spielplatz","Spielhügel","0084","POINT (2682672 1243867.1)"
"","Seestrasse 119","","","","","Grün Stadt Zürich","202412161130","","Tiefbau- und Entsorgungsdepartement (TED)","","","","","","","","","Spielplatz","","Belvoirpark","","2766.0000000000","","","","","","","","","","","","","","","","8002","sp079","","1","","Hartplatz, Rotationsgerät, Sandbereich, Federwippe, Brettschaukel, Bockrutsche, Sitzbänke, historische Parkanlage","+41 44 201 75 00","","","","","","","https://www.zvv.ch/de/fahrplan-und-informationen/fahrplan.html?toname=Seestrasse%20119&tolat=47.35817666&tolon=8.53285229","79","J","0 - 5 Jahre","Rotationsgerät, Sandbereich, Federwippe, Brettschaukel, Bockrutsche","","","historische Parkanlage","Spielplatz","Hartplatz","0079","POINT (2682664.8 1245835.1)"
"","Neugasse/Josef-/Ottostrasse","","","","","Grün Stadt Zürich","202412161130","","Tiefbau- und Entsorgungsdepartement (TED)","","","","","","","","","Spielplatz","","Josefswiese","","2767.0000000000","","","","","","","","","","","","","","","","8005","sp099","","1","","Kiesfläche, Hängematte, Sandbereich, Wasserförderanlage, Brettschaukel, Balanciergerät, Korbschaukel, Balanciergerät, Hängematte, Kletteranlage mit Rutsche,  Pumpe, Tischtennistisch, ZüriWC, Beachvolleyball, Boccia, Plantschbecken,Baumbestand","+41 44 461 21 17","","","","","","","https://www.zvv.ch/de/fahrplan-und-informationen/fahrplan.html?toname=Neugasse/Josef-/Ottostrasse&tolat=47.38592751&tolon=8.52257424","99","J","0 - 16 Jahre","Hängematte, Sandbereich, Wasserförderanlage, Brettschaukel, Balanciergerät, Korbschaukel, Balanciergerät, Hängematte, Kletteranlage mit Rutsche,  Pumpe, Tischtennistisch","","","grosszügige Parkanlage mit altem Baumbestand","Spielplatz","Spiel- und Liegewiese, grosse Kiesfläche","0099","POINT (2681845.8 1248909.5)"
"","Sihlfeld-/Zentral-/Gertrudstrasse","","","","","Grün Stadt Zürich","202412161130","","Tiefbau- und Entsorgungsdepartement (TED)","","","","","","","","","Spielplatz","","Gertrudplatz","","2768.0000000000","","","","","","","","","","","","","","","","8003","sp066","","1","","Kiesplatz, Brettschaukel, Sandbereich, Kletteranlage mit Rutsche,  Federwippe,  Bockrutsche, Sitzbänke, Brunnen","+41 44 492 71 41","","","","","","","https://www.zvv.ch/de/fahrplan-und-informationen/fahrplan.html?toname=Sihlfeld-/Zentral-/Gertrudstrasse&tolat=47.37404780&tolon=8.51683877","66","J","0 - 5 Jahre","Brettschaukel, Sandbereich, Kletteranlage mit Rutsche,  Federwippe,  Bockrutsche","","","Kleine Parkanlage","Spielplatz","Kiesplatz","0066","POINT (2681431 1247582.9)"
"","Birchstrasse","","","","","Grün Stadt Zürich","202412161130","","Tiefbau- und Entsorgungsdepartement (TED)","","","","","0_","_NULL","","","Spielplatz","","Oerlikerpark","","2790.0000000000","","","","","","","","","","","","","","","","8050","sp131","","1","","Kiesfläche, Liegerost aus Holz, Wasserspiel, Brettschaukel, Korbschaukel, Kletteranlage mit Rutsche, Federwippe, Hängematte, Balanciergerät, Lauschrohr, Sandkasten, Sitzbänke, Sonnenschirme Kletteranlage","+41 44 412 06 77","","","","","","Birchstrasse","https://www.zvv.ch/de/fahrplan-und-informationen/fahrplan.html?toname=Birchstrasse&tolat=47.41488348&tolon=8.53726578","131","J","0 - 9 Jahre","Brettschaukel, Korbschaukel, Kletteranlage mit Rutsche, Federwippe, Hängematte, Balanciergerät, Lauschrohr, Sandkasten","","","Einzigartige Kletteranlage","Spielplatz","Kiesfläche, Liegerost aus Holz, Wasserspiel","0131","POINT (2682910 1252144)"
"","Bachwiesen Grünzug","Wydlerweg","","","","Grün Stadt Zürich","202412161130","","Tiefbau- und Entsorgungsdepartement (TED)","","","","","0_","Spielplatz","","","Spielplatz","","Bachwiesen GrünzugBachwiesen Grünzug","sp0112","2791.0000000000","","","","","","","","","","","","","","","Zürich","","sp9106","","1","","","+41 44 431 57 61","","","","","","Bachwiesen Grünzug","https://www.zvv.ch/de/fahrplan-und-informationen/fahrplan.html?toname=Zürich%2C%20Bachwiesen%20Grünzug&tolat=47.37635431&tolon=8.48627099","","N","","Spielbagger","","","","","","0112","POINT (2679119 1247808)"
"","Bernerstrasse 331 (Spielplatz)","","","","","Grün Stadt Zürich","202412161130","","Tiefbau- und Entsorgungsdepartement (TED)","","","","","","","","","Spielplatz","","Sportanlage Juchhof","","2792.0000000000","","","","","","","","","","","","","","","","8048","sp168","","1","","Hartplatz, Rotationsgerät, Brettschaukel,  Federwippe, Denkspiel,  Sandkasten, Reck, Sitzbänke, Sportanlage","+41 44 344 14 00","","","","","","","https://www.zvv.ch/de/fahrplan-und-informationen/fahrplan.html?toname=Bernerstrasse%20331%20(Spielplatz)&tolat=47.39876853&tolon=8.46700931","168","J","0 - 5 Jahre","Rotationsgerät, Brettschaukel,  Federwippe, Denkspiel,  Sandkasten, Reck","","","Die Anlage befindet sich am Rand der Sportanlage Juchhof. Der Spielplatz ist jederzeit zugänglich.","Spielplatz","Hartplatz","0168","POINT (2677631.8 1250280.6)"
"","Seefeldstrasse 109","","","GZ Riesbach (A)","","Grün Stadt Zürich","202412161130","","Tiefbau- und Entsorgungsdepartement (TED)","","","","","0_","_NULL","","","Spielplatz","","GZ Riesbach (A)","","2793.0000000000","","","","","","","","","","","","","","","","8008","sp056","","1","","Kletternetzpyramide, Rotationsgerät, Hüpfteller, Bockrutsche, Kombischaukel, Sandbereich, Brettschaukel, Hangrutsche, Spielhaus,  Labyrinth, Pumpe, Grosser Wippboden, Sitzbänke, Stühle, Vitalgeräte, Gemeinschaftszentrum","+41 44 422 54 97","","","","","","Seefeldstrasse 109","https://www.zvv.ch/de/fahrplan-und-informationen/fahrplan.html?toname=Seefeldstrasse%20109&tolat=47.35897431&tolon=8.55368095","56","J","0 - 99 Jahre","Kletternetzpyramide, Rotationsgerät, Hüpfteller, Bockrutsche, Kombischaukel, Sandbereich, Brettschaukel, Hangrutsche, Spielhaus,  Labyrinth, Pumpe, Grosser Wippboden","","","Gemeinschaftszentrum, Vorplatz als Generationenplatz","GZ mit Spielplatz","Grosser Quartierspielplatz","0056","POINT (2684237 1245946)"
"","Erlach-/Aegertenstrasse","","","","","Grün Stadt Zürich","202412161130","","Tiefbau- und Entsorgungsdepartement (TED)","","","","","0_","_NULL","","","Spielplatz","","Aegerten","","2794.0000000000","","","","","","","","","","","","","","","","8003","sp071","","1","","Spielwiese, Spielfläche, Gurtensteg, Kombischaukel, Seilanlage mit Rutsche, Balanciergerät, Balanciergerät, Bockrutsche, Pumpe, Kombischaukel, Federwippe, Drehkletterturm, Sitzbänke, Züri-WC, Baumbestand","+41 44 461 21 17","","","","","","Erlach-/Aegertenstrasse","https://www.zvv.ch/de/fahrplan-und-informationen/fahrplan.html?toname=Erlach-/Aegertenstrasse&tolat=47.36843523&tolon=8.52271123","71","J","0 - 16 Jahre","Gurtensteg, Kombischaukel, Seilanlage mit Rutsche, Balanciergerät, Balanciergerät, Bockrutsche, Pumpe, Kombischaukel, Federwippe, Drehkletterturm","","","schöner Baumbestand","Spielplatz","Spielwiese, Spielfläche","0071","POINT (2681883 1246965)"
"","Cäsar Ritz Strasse","","","","","Grün Stadt Zürich","202412161130","","Tiefbau- und Entsorgungsdepartement (TED)","","","","","","","","","Spielplatz","","Looächeranlage","","2795.0000000000","","","","","","","","","","","","","","","","8046","sp176","","1","","Spiel- und Liegefläche, Kiesfläche, Hartplatz, Hängematte, Brettschaukel, Seilanlage, Tischtennistisch, Sitzbänke, Hartplatz","+41 44 371 05 13","","","","","","","https://www.zvv.ch/de/fahrplan-und-informationen/fahrplan.html?toname=Cäsar%20Ritz%20Strasse&tolat=47.42408607&tolon=8.49797257","176","J","0 - 16 Jahre","Hängematte, Brettschaukel, Seilanlage, Tischtennistisch","","","Quartierspielplatz mit Hartplatz","Spielplatz","Spiel- und Liegefläche, Kiesfläche, Hartplatz","0176","POINT (2679931 1253126.4)"
"","Möhrli-/Schanzackerstrasse","","","","","Grün Stadt Zürich","202412161130","","Tiefbau- und Entsorgungsdepartement (TED)","","","","","","","","","Spielplatz","","Möhrlianlage","","2796.0000000000","","","","","","","","","","","","","","","","8006","sp037","","1","","Sandanlage, Kiesrasenfläche, Sandbereich, Federwippe, Brettschaukel, Tischtennistisch, Sitzbänke, Feuerstellen","+41 44 361 63 18","","","","","","","https://www.zvv.ch/de/fahrplan-und-informationen/fahrplan.html?toname=Möhrli-/Schanzackerstrasse&tolat=47.39000756&tolon=8.54700398","37","J","0 - 5 Jahre","Sandbereich, Federwippe, Brettschaukel, Tischtennistisch","","","Kleine Parkanlage","Spielplatz","Sandanlage, Kiesrasenfläche","0037","POINT (2683684 1249388.9)"
"","Gabler-/Grütlistrasse","","","","","Grün Stadt Zürich","202412161130","","Tiefbau- und Entsorgungsdepartement (TED)","","","","","","","","","Spielplatz","","Rieterpark - Gablerstrasse","","2818.0000000000","","","","","","","","","","","","","","","","8002","sp078a","","1","","Spiel- und Liegewiese, Sandbereich, Spielhaus, Brettschaukel, Korbschaukel, Kletteranlage mit Rutsche, Balanciergerät, Sitzbänke, grosszügige, historische Parkanlage, Museum Rietberg","+41 44 201 75 00","","","","","","","https://www.zvv.ch/de/fahrplan-und-informationen/fahrplan.html?toname=Gabler-/Grütlistrasse&tolat=47.35928809&tolon=8.53153833","78a","J","0 - 5 Jahre","Sandbereich, Spielhaus, Brettschaukel, Korbschaukel, Kletteranlage mit Rutsche, Balanciergerät","","","grosszügige, historische Parkanlage, Museum Rietberg","Spielplatz","Spiel- und Liegewiese","0078A","POINT (2682563.8 1245957.4)"
"","Bachtoblerpark","Bachtobelstrasse 19","","","","Grün Stadt Zürich","202412161130","","Tiefbau- und Entsorgungsdepartement (TED)","","","","","0_","Spielplatz","","","Spielplatz","","BachtoblerparkBachtoblerpark","","2819.0000000000","","","","","","","","","","","","","","","Zürich","","sp9571","","1","","","+41 44 412 46 13","","","","","","Bachtoblerpark","https://www.zvv.ch/de/fahrplan-und-informationen/fahrplan.html?toname=Zürich%2C%20Bachtoblerpark&tolat=47.36111324&tolon=8.51693610","","N","","","","","","","","0152","POINT (2681458 1246145)"
"","Einfang-/Wehntalerstrasse 447","","","","","Grün Stadt Zürich","202412161130","","Tiefbau- und Entsorgungsdepartement (TED)","","","","","0__","_NULL","","","Spielplatz","","Im Einfang","","2820.0000000000","","","","","","","","","","","","","","","","8046","sp122","","1","","Spiel- und Liegewiese, Kletteranlage mit Rutsche, Sandbereich, Brettschaukel, Matschtisch, Sitzbänke, Brunnen","+41 44 371 05 13","","","","","","Einfang-/Wehntalerstrasse 447","https://www.zvv.ch/de/fahrplan-und-informationen/fahrplan.html?toname=Zürich, Einfangstrasse 10a","122","J","0 - 5 Jahre","Kletteranlage mit Rutsche, Sandbereich, Brettschaukel, Matschtisch","","","Kleine Parkanlage","Spielplatz","Spiel- und Liegewiese","0122","POINT (2681079 1252248.6)"
"","Glattalstrasse","","","","","Grün Stadt Zürich","202412161130","","Tiefbau- und Entsorgungsdepartement (TED)","","","","","0_","_NULL","","","Spielplatz","","Seebach (Freibad)","","2821.0000000000","","","","","","","","","","","","","","","","8052","sp181","","1","","Spiel- und Liegewiese, Brettschaukel, Rotationsgerät, Wasserförderanlage, Wasserspiel, Sitzbänke, Spielanlage","+41 44 412 06 77","","","","","","Glattalstrasse","https://www.zvv.ch/de/fahrplan-und-informationen/fahrplan.html?toname=Glattalstrasse&tolat=47.42444436&tolon=8.54772167","181","J","0 - 9 Jahre","Brettschaukel, Rotationsgerät, Wasserförderanlage, Wasserspiel","","","Spielanlage in Badeanlage. Öffnungszeiten berücksichtigen!","Spielplatz in Badeanlage","Spiel- und Liegewiese","0181","POINT (2683684 1253218)"
"","Nord-/Lehenstrasse","","","","","Grün Stadt Zürich","202412161130","","Tiefbau- und Entsorgungsdepartement (TED)","","","","","","","","","Spielplatz","","Lehenanlage","","2822.0000000000","","","","","","","","","","","","","","","","8037","sp027","","1","","grosse Kiesfläche, Brettschaukel, Kletteranlage mit Rutsche, Hangrutsche, Tischtennistisch, Sitzbänke","+41 44 361 63 18","","","","","","","https://www.zvv.ch/de/fahrplan-und-informationen/fahrplan.html?toname=Nord-/Lehenstrasse&tolat=47.39619721&tolon=8.52210577","27","J","0 - 9 Jahre","Brettschaukel, Kletteranlage mit Rutsche, Hangrutsche, Tischtennistisch","","","Kleine Parkanlage","Spielplatz","grosse Kiesfläche","0027","POINT (2681794.8 1250050.8)"
"","Sunnige Hof 34a","","","","","Grün Stadt Zürich","202412161130","","Tiefbau- und Entsorgungsdepartement (TED)","","","","34a","0_","Spielplatz","","","Spielplatz","","Suunige Hof / WeibelackerstrasseSuunige Hof / Weibelackerstrasse","","2823.0000000000","","","","","","","","","","","","","","","Zürich","","sp9575","","1","Sunnige Hof","","+41 44 412 46 13","","","","","","Sunnige Hof 34a","https://www.zvv.ch/de/fahrplan-und-informationen/fahrplan.html?toname=Zürich%2C%20Sunnige%20Hof%2034a&tolat=47.39914902&tolon=8.58744261","","N","","","","","","","","0170","POINT (2686722 1250449)"
"","Helen-Keller-Strasse 55","","","","","Grün Stadt Zürich","202412161130","","Tiefbau- und Entsorgungsdepartement (TED)","","","","55","0__https://zuerst.proinfirmis.ch/pois/detail/25048","_NULL","","","Spielplatz","","Mobile Spielanimation Schwamendingen","","2824.0000000000","","","","","","","","","","","","","","","Zürich","8051","sp12765","","1","Helen-Keller-Strasse","","+41 44 325 60 26","","","","","","Helen-Keller-Strasse 55","https://www.zvv.ch/de/fahrplan-und-informationen/fahrplan.html?tolat=47.402477171138&tolon=8.59196595618581&toname=Zürich, Helen-Keller-Strasse 55","","N","","","","","","","","","POINT (2687058 1250824)"
"","Lommisweg","","","","","Grün Stadt Zürich","202412161130","","Tiefbau- und Entsorgungsdepartement (TED)","","","","","","","","","Spielplatz","","Lommisweg A","","2825.0000000000","","","","","","","","","","","","","","","","8048","sp096a","","1","","Spiel- und Liegewiese, Kletteranlage mit Rutsche, Kombischaukel, Rotationsgerät, Federwippe, Pumpen, Balkenwippe, Balanciergerät, Sandbereich, Sitzbänke","+41 44 431 57 61","","","","","","","https://www.zvv.ch/de/fahrplan-und-informationen/fahrplan.html?toname=Lommisweg&tolat=47.39099809&tolon=8.48688912","96a","J","0 - 5 Jahre","Kletteranlage mit Rutsche, Kombischaukel, Rotationsgerät, Federwippe, Pumpen, Balkenwippe, Balanciergerät, Sandbereich","","","Umbau 2016","Spielplatz","Spiel- und Liegewiese","0096A","POINT (2679144 1249436.6)"
"","Feldstrasse 37","","","","","Grün Stadt Zürich","202412161130","","Tiefbau- und Entsorgungsdepartement (TED)","","","","","","","","","Spielplatz","","Pflanzschulwiese","","2847.0000000000","","","","","","","","","","","","","","","","8004","sp111","","1","","Spiel- und Liegewiese, Bockrutsche, Sitzkarussell, Spielhaus, Brettschaukel, Sandbereich, Sitzbänke, Brunnen, Spielwiese","+41 44 461 21 17","","","","","","","https://www.zvv.ch/de/fahrplan-und-informationen/fahrplan.html?toname=Feldstrasse%2037&tolat=47.37605318&tolon=8.52075673","111","J","0 - 5 Jahre","Bockrutsche, Sitzkarussell, Spielhaus, Brettschaukel, Sandbereich","","","kleine Spielanlage neben grosser Spielwiese","Spielplatz","Spiel- und Liegewiese","0111","POINT (2681723.8 1247809.9)"
"","Luegislandstrasse","","","","","Grün Stadt Zürich","202412161130","","Tiefbau- und Entsorgungsdepartement (TED)","","","","","","","","","Spielplatz","","Auhof (Freibad)","","2848.0000000000","","","","","","","","","","","","","","","","8051","sp185","","1","","Spiel- und Liegewiese, Kletteranlage mit Rutsche, Brettschaukel, Sitzbänke, Badeanlage","+41 44 322 02 20","","","","","","","https://www.zvv.ch/de/fahrplan-und-informationen/fahrplan.html?toname=Luegislandstrasse&tolat=47.40770916&tolon=8.57029502","185","J","0 - 9 Jahre","Kletteranlage mit Rutsche, Brettschaukel","","","Spielanlage in Badeanlage. Öffnungszeiten berücksichtigen!","Spielplatz in Badeanlage","Spiel- und Liegewiese","0185","POINT (2685414 1251381.9)"
"","Freudenbergstrasse 41","","","","","Grün Stadt Zürich","202412161130","","Tiefbau- und Entsorgungsdepartement (TED)","","","","","","","","","Spielplatz","","Schlössliareal","","2849.0000000000","","","","","","","","","","","","","","","","8044","sp042","","1","","Spiel- und Liegewiese, Planschbecken, Brettschaukel, Planschbecken, Hangrutsche, Sandbereich, Federwippe, Sitzbänke","+41 44 361 63 18","","","","","","","https://www.zvv.ch/de/fahrplan-und-informationen/fahrplan.html?toname=Freudenbergstrasse%2041&tolat=47.38194691&tolon=8.55829211","42","J","0 - 5 Jahre","Brettschaukel, Planschbecken, Hangrutsche, Sandbereich, Federwippe","","","Quartierspielplatz","Spielplatz","Spiel- und Liegewiese, Planschbecken","0042","POINT (2684549 1248504.9)"
"","Regina Kägi-Strasse","","","","","Grün Stadt Zürich","202412161130","","Tiefbau- und Entsorgungsdepartement (TED)","","","","","0_","_NULL","","","Spielplatz","","Louis Häfliger Park","","2850.0000000000","","","","","","","","","","","","","","","","8050","sp143","","1","","Spiel- und Liegewiese, Hartplatz, Allwetterplatz, Spielhügel, Brettschaukel, Sprossengerät, Bockrutsche, Reck, Sitzbänke, Liegeflächen, moderne Parkanlage","+41 44 412 06 77","","","","","","Regina Kägi-Strasse","https://www.zvv.ch/de/fahrplan-und-informationen/fahrplan.html?toname=Regina%20Kägi-Strasse&tolat=47.41250759&tolon=8.53359922","143","J","0 - 16 Jahre","Brettschaukel, Sprossengerät, Bockrutsche, Reck","","","moderne Parkanlage","Spielplatz","Spiel- und Liegewiese, Hartplatz, Allwetterplatz, Spielhügel","0143","POINT (2682637 1251876)"
"","Bachwiesenstrasse/Mathysweg","","","","","Grün Stadt Zürich","202412161130","","Tiefbau- und Entsorgungsdepartement (TED)","","","","","","","","","Spielplatz","","GZ Bachwiesen","","2851.0000000000","","","","","","","","","","","","","","","","8047","sp103","","1","","Bachspielbereich, Tiergehege, Volière, Summstein, Brunnen, Pergola, Hamsterrad, Riesenschaukel, Kletteranlage, Brettschaukel, Sandbereich, Federwippe,  Balkenwippe, Spielhaus, Tischtennistisch, alte Dampfwalze, Gemeinschaftszentrum","+41 44 431 57 61","","","","","","","https://www.zvv.ch/de/fahrplan-und-informationen/fahrplan.html?toname=Bachwiesenstrasse/Mathysweg&tolat=47.38035361&tolon=8.48650923","103","J","0 - 16 Jahre","Hamsterrad, Riesenschaukel, Kletteranlage mit Rutsche, Brettschaukel, Sandbereich, Federwippe,  Balkenwippe, Bockrutsche,  Pumpe, Spielhaus, Tischtennistisch","","","Gemeinschaftszentrum, grosszügige, abwechslungsreiche Anlage mit Tieren","GZ mit Spielplatz","Bachspielbereich, Spiel- und Liegewiese, Tiergehege, Volière, Summstein, Brunnen, Pergola","0103","POINT (2679131 1248252.9)"
"","Hohenklingen-Allee","","","","","Grün Stadt Zürich","202412161130","","Tiefbau- und Entsorgungsdepartement (TED)","","","","","","","","","Spielplatz","","Hohenklingen Allee","","2852.0000000000","","","","","","","","","","","","","","","","8049","sp091","","1","","terrassierte Spielfläche, Spielhaus, Rutsche, Federwippe,  Sandbereich, Brettschaukel, Sitzbänke, Aussicht","+41 44 344 14 00","","","","","","","https://www.zvv.ch/de/fahrplan-und-informationen/fahrplan.html?toname=Hohenklingen-Allee&tolat=47.40228515&tolon=8.48931634","91","J","0 - 5 Jahre","Spielhaus, Rutsche, Federwippe,  Sandbereich, Brettschaukel","","","schöne Aussicht","Spielplatz","terrassierte Spielfläche","0091","POINT (2679310.5 1250693.9)"
"","Sihlpromenade","","","","","Grün Stadt Zürich","202412161130","","Tiefbau- und Entsorgungsdepartement (TED)","","","","","","","","","Spielplatz","","Sihlpromenade","","2853.0000000000","","","","","","","","","","","","","","","","8003","sp130","","1","","Spiel- und Liegewiese, Weidengang, Spielhügel, Brettschaukel, Kletteranlage mit Rutsche, Kletteranlage mit Rutsche, Sandbereich,  Reck, Sitzbänke, Spielkisten, Kletteranlage","+41 44 201 75 00","","","","","","","https://www.zvv.ch/de/fahrplan-und-informationen/fahrplan.html?toname=Sihlpromenade&tolat=47.36742368&tolon=8.52686716","130","J","0 - 9 Jahre","Brettschaukel, Kletteranlage mit Rutsche, Kletteranlage mit Rutsche, Sandbereich,  Reck","","","Einzigartige Kletteranlage in Form und Farbgebung auf SZU-Züge abgestimmt","Spielplatz","Spiel- und Liegewiese, Weidengang, Spielhügel","0130","POINT (2682198.5 1246856.9)"
"","GZ Riesbach (B)","","","Riesbach Quartierpark (B","","Grün Stadt Zürich","202412161130","","Tiefbau- und Entsorgungsdepartement (TED)","","","","","1_","Besuchenden-WC_Behinderten-WC_Spielplatz","","","Spielplatz","","GZ Riesbach (B)GZ Riesbach (B)","","2854.0000000000","","","","","","","","","","","","","","","Zürich","8008","sp9570","","1","","","+41 44 422 54 97","","","","","","","https://www.zvv.ch/de/fahrplan-und-informationen/fahrplan.html?toname=Zürich%2C%20GZ%20Riesbach%20(B)&tolat=47.35915691&tolon=8.55433343","","N","","","","","","","","0150","POINT (2684286 1245967)"
"","Hardeggweg/-strasse","","","","","Grün Stadt Zürich","202412161130","","Tiefbau- und Entsorgungsdepartement (TED)","","","","","","","","","Spielplatz","","Hardeggstrasse","","2875.0000000000","","","","","","","","","","","","","","","","8049","sp094","","1","","Spiel- und Liegewiese, Kiesfläche, Sandbereich, Sandspielgeräte, Brettschaukel, Kletteranlage mit Rutsche, Bockrutsche, Federwippe, Tischtennistisch, Sitzbänke, Volière","+41 44 344 14 00","","","","","","","https://www.zvv.ch/de/fahrplan-und-informationen/fahrplan.html?toname=Hardeggweg/-strasse&tolat=47.39663994&tolon=8.50252532","94","J","0 - 5 Jahre","Sandbereich, Sandspielgeräte, Brettschaukel, Kletteranlage mit Rutsche, Bockrutsche, Federwippe, Tischtennistisch","","","liegt am rechten Limmatuferweg, Volière in der Anlage","Spielplatz","Spiel- und Liegewiese, Kiesfläche","0094","POINT (2680316 1250079.8)"
"","Bleulerstrasse","","","","","Grün Stadt Zürich","202412161130","","Tiefbau- und Entsorgungsdepartement (TED)","","","","","","","","","Spielplatz","","Sportanlage Lengg","","2876.0000000000","","","","","","","","","","","","","","","","8008","sp142","","1","","Spiel- und Liegewiese, Federwippe, Kletteranlage mit Rutsche, Tischtennistisch, Sitzbänke, Tennisanlage, Öffnungszeiten","+41 44 422 54 97","","","","","","","https://www.zvv.ch/de/fahrplan-und-informationen/fahrplan.html?toname=Bleulerstrasse&tolat=47.35027475&tolon=8.57175485","142","J","4 - 9 Jahre","Federwippe, Kletteranlage mit Rutsche, Tischtennistisch","","","liegt innerhalb der Tennisanlage, Öffnungszeiten beachten!","Spielplatz","Spiel- und Liegewiese","0142","POINT (2685616.2 1244998.4)"
"","Saumackerstrasse, bei kath. Kirche","","","","","Grün Stadt Zürich","202412161130","","Tiefbau- und Entsorgungsdepartement (TED)","","","","","","","","","Spielplatz","","Saumackerstrasse","","2877.0000000000","","","","","","","","","","","","","","","","8048","sp100","","1","","Kiesplatz, Brettschaukel, Federwippe, Pumpen, Sandbereich,Tischtennistisch, Sitzbänke, Brunnen","+41 44 431 57 61","","","","","","","https://www.zvv.ch/de/fahrplan-und-informationen/fahrplan.html?toname=Saumackerstrasse,%20bei%20kath.%20Kirche&tolat=47.38426999&tolon=8.48783990","100","J","0 - 5 Jahre","Brettschaukel, Federwippe, Pumpen, Sandbereich,Tischtennistisch","","","kleine Spielanlage","Spielplatz","Kiesplatz","0100","POINT (2679225.8 1248689.6)"
"","Hüttenkopf-/Ziegelhüttenstrasse","","","","","Grün Stadt Zürich","202412161130","","Tiefbau- und Entsorgungsdepartement (TED)","","","","","","","","","Spielplatz","","Ziegelhütte","","2878.0000000000","","","","","","","","","","","","","","","","8051","sp025","","1","","Spiel- und Liegewiese, Spielhügel, Brettschaukel, Sandkasten, Sitzkarussell, Sitzbänke, Feuerstellen, Brunnen, Ausflugsziel, Aussicht, Waldrand","+41 44 322 02 20","","","","","","","https://www.zvv.ch/de/fahrplan-und-informationen/fahrplan.html?toname=Hüttenkopf-/Ziegelhüttenstrasse&tolat=47.39866189&tolon=8.57377248","25","J","0 - 9 Jahre","Brettschaukel, Sandkasten, Sitzkarussell","","","Ausflugsziel, Aussicht, am Waldrand","Spielplatz","Spiel- und Liegewiese, Spielhügel","0025","POINT (2685691 1250379.9)"
"","Limmatstrasse, neben Schulhaus Limmat","","","","","Grün Stadt Zürich","202412161130","","Tiefbau- und Entsorgungsdepartement (TED)","","","","","","","","","Spielplatz","","Klingenpark","","2879.0000000000","","","","","","","","","","","","","","","","8005","sp129","","1","","Spiel- und Liegewiese, Pendelschaukel, Balanciergerät, Drehteller, Kletterelement, Drehkletterturm, Tischtennistisch, Sitzbänke, Parkanlage","+41 44 461 21 17","","","","","","","https://www.zvv.ch/de/fahrplan-und-informationen/fahrplan.html?toname=Limmatstrasse,%20neben%20Schulhaus%20Limmat&tolat=47.38284409&tolon=8.53485429","129","J","0 - 9 Jahre","Pendelschaukel, Balanciergerät, Drehteller, Kletterelement, Drehkletterturm, Tischtennistisch","","","Parkanlage mit kleiner Spielanlage","Spielplatz","Spiel- und Liegewiese","0129","POINT (2682777.8 1248579.6)"
"","Ottikerweg/Stolzestrasse","","","","","Grün Stadt Zürich","202412161130","","Tiefbau- und Entsorgungsdepartement (TED)","","","","","","","","","Spielplatz","","Stolzewiese","","2880.0000000000","","","","","","","","","","","","","","","","8006","sp039","","1","","Spiel- und Liegewiese, Wasserspielbereich, Balanciergerät, Sandbereich, Hangrutsche, Brettschaukel, Geschlossene Rutsche, Reck, Federwippe, Kletteranlage mit Rutsche, Tischtennistisch, Sitzbänke, Brunnen","+41 44 361 63 18","","","","","","","https://www.zvv.ch/de/fahrplan-und-informationen/fahrplan.html?toname=Ottikerweg/Stolzestrasse&tolat=47.38672993&tolon=8.54641926","39","J","0 - 16 Jahre","Balanciergerät, Sandbereich, Hangrutsche, Brettschaukel, Geschlossene Rutsche, Reck, Federwippe, Kletteranlage mit Rutsche, Tischtennistisch","","","Grosszügige Parkanlage","Spielplatz","Spiel- und Liegewiese, Wasserspielbereich","0039","POINT (2683645 1249023.9)"
"","Holunderweg","","","","","Grün Stadt Zürich","202412161130","","Tiefbau- und Entsorgungsdepartement (TED)","","","","","0_","_NULL","","","Spielplatz","","Birchwald","","2881.0000000000","","","","","","","","","","","","","","","","8050","sp123","","1","","Spiel- und Liegewiese, kleiner Wald, Drehteller, Balanciergerät, Hängematte, Brettschaukel, Tischtennistisch, Sitzbänke, Baumbestand","+41 44 412 06 77","","","","","","Holunderweg","https://www.zvv.ch/de/fahrplan-und-informationen/fahrplan.html?toname=Holunderweg&tolat=47.40893740&tolon=8.53540741","123","J","0 - 16 Jahre","Drehteller, Balanciergerät, Hängematte, Brettschaukel, Tischtennistisch","","","grosszügige Parkanlage mit altem Baumbestand","Spielplatz","Spiel- und Liegewiese, kleiner Wald","0123","POINT (2682779 1251481)"
"","Manessestrasse, neben Sportplatz","","","","","Grün Stadt Zürich","202412161130","","Tiefbau- und Entsorgungsdepartement (TED)","","","","","","","","","Spielplatz","","Sihlhölzli","","2882.0000000000","","","","","","","","","","","","","","","","8003","sp073","","1","","Spielwiese, Planschbecken, Klettergerät, Klettergerät mit Rutschstange, Trinkbrunnen, Züri-WC, Baumbestand","+41 44 461 21 17","","","","","","","https://www.zvv.ch/de/fahrplan-und-informationen/fahrplan.html?toname=Manessestrasse,%20neben%20Sportplatz&tolat=47.36669788&tolon=8.52365420","73","J","0 - 5 Jahre","Klettergerät, Klettergerät mit Rutschstange","","","Bestandteil des Projekts 'Aufwertung der Manessestrasse', schöner Baumbestand","Spielplatz","Spielwiese, Planschbecken","0073","POINT (2681957 1246772.9)"
"","Winkelwiese 4 (Spielplatz)","","","","","Grün Stadt Zürich","202412161130","","Tiefbau- und Entsorgungsdepartement (TED)","","","","","","","","","Spielplatz","","Villa Tobler","","2897.0000000000","","","","","","","","","","","","","","","","8001","sp049","","1","","kleiner Spielplatz, Sandkasten, Brettschaukel, Federwippe, Sitzbänke, Historischer Villengarten","+41 44 361 63 18","","","","","","","https://www.zvv.ch/de/fahrplan-und-informationen/fahrplan.html?toname=Winkelwiese%204%20(Spielplatz)&tolat=47.36991384&tolon=8.54656831","49","J","0 - 5 Jahre","Sandkasten, Brettschaukel, Federwippe","","","Historischer Villengarten in der Altstadt","Spielplatz","kleiner Spielplatz","0049","POINT (2683682.5 1247154.5)"
"","Rebenweg 2/6","","","","","Grün Stadt Zürich","202412161130","","Tiefbau- und Entsorgungsdepartement (TED)","","","","","","","","","Spielplatz","","Rebenweg","","2898.0000000000","","","","","","","","","","","","","","","","8041","sp086","","1","","Spiel- und Liegewiese, Fussballplatz, Sandbereich, Balanciergerät, Kletteranlage mit Rutsche, Pumpe,  Rutsche, Korbschaukel, Kletterturm, Brettschaukel, Matschtisch, Federwippe, Feuerstelle, Sonnenschirme, Sitzbänke, Waldrand, Spielturm","+41 44 482 10 03","","","","","","","https://www.zvv.ch/de/fahrplan-und-informationen/fahrplan.html?toname=Rebenweg%202/6&tolat=47.33482147&tolon=8.51384148","86","J","0 - 16 Jahre","Sandbereich, Balanciergerät, Kletteranlage mit Rutsche, Pumpe,  Rutsche, Korbschaukel, Kletterturm, Brettschaukel, Matschtisch, Federwippe","","","direkt am Waldrand gelegene einzigartige Spielanlage mit riesigem Spielturm","Spielplatz","Spiel- und Liegewiese, Fussballplatz","0086","POINT (2681264.2 1243218.9)"
"","Gemeindehausstrasse 54","","","","","Grün Stadt Zürich","202412161130","","Tiefbau- und Entsorgungsdepartement (TED)","","","","","","","","","Spielplatz","","GZ Hottingen","","2899.0000000000","","","","","","","","","","","","","","","","8032","sp146","","1","","grosse Kiesfläche, Hartplatz, Drehkletterturm, Hüpfteller, Sitzbänke, Gemeinschaftszentrum","+41 44 422 54 97","","","","","","","https://www.zvv.ch/de/fahrplan-und-informationen/fahrplan.html?toname=Gemeindehausstrasse%2054&tolat=47.36944745&tolon=8.55661872","146","J","0 - 9 Jahre","Drehkletterturm, Hüpfteller","","","Gemeinschaftszentrum","GZ mit Spielplatz","grosse Kiesfläche, Hartplatz","0146","POINT (2684442.2 1247113.5)"
"","","","","","","Grün Stadt Zürich","202412161130","","Tiefbau- und Entsorgungsdepartement (TED)","","","","8","","","","","Spielplatz","","Manegg KigaManegg Kiga","","2900.0000000000","","","","","","","","","","","","","","","Zürich","8038","sp9649","","1","Mööslistrasse","","","","https://www.stadt-zuerich.ch/ted/de/index/gsz/natur-erleben/freizeit-im-gruenen/spielplaetze.html","","","","","","","N","0 - 9 Jahre","","","","","SPPL IMMO Schule","","0755","POINT (2682339 1244447)"
"","Döltschiweg","","","","","Grün Stadt Zürich","202412161130","","Tiefbau- und Entsorgungsdepartement (TED)","","","","","","","","","Spielplatz","","Heuried Freizeitanlage","","2901.0000000000","","","","","","","","","","","","","","","","8055","sp074b","","1","","Spiel- und Liegewiese, Spielhaus, Federwippe, Brettschaukel, Federwippe, Kletteranlage mit Rutsche, Sitzbänke, krumme und schiefe Kletteranlage","+41 44 492 71 41","","","","","","","https://www.zvv.ch/de/fahrplan-und-informationen/fahrplan.html?toname=Döltschiweg&tolat=47.36695223&tolon=8.50400357","74b","J","0 - 9 Jahre","Spielhaus, Federwippe, Brettschaukel, Federwippe, Kletteranlage mit Rutsche","","","krumme und schiefe Kletteranlage","Spielplatz","Spiel- und Liegewiese","0074B","POINT (2680472.2 1246780.8)"
"","Ringstrasse","","","","","Grün Stadt Zürich","202412161130","","Tiefbau- und Entsorgungsdepartement (TED)","","","","","0_","_NULL","","","Spielplatz","","Allenmoos (Freibad)","","2902.0000000000","","","","","","","","","","","","","","","","8057","sp182","","1","","Spiel- und Liegewiese, Schwingwippe, Federwippe, Korbschaukel, Drehkletterturm, Sandspielgeräte, Balkenwippe, Brettschaukel, Kletteranlage mit Rutsche, Sitzbänke, Spielanlage","+41 44 361 63 18","","","","","","Ringstrasse","https://www.zvv.ch/de/fahrplan-und-informationen/fahrplan.html?toname=Ringstrasse&tolat=47.40487276&tolon=8.53907331","182","J","0 - 9 Jahre","Schwingwippe, Federwippe, Korbschaukel, Drehkletterturm, Sandspielgeräte, Balkenwippe, Brettschaukel, Kletteranlage mit Rutsche","","","Spielanlage in Badeanlage. Öffnungszeiten berücksichtigen!","Spielplatz in Badeanlage","Spiel- und Liegewiese","0182","POINT (2683062 1251033)"
"","Drahtzugstrasse","","","","","Grün Stadt Zürich","202412161130","","Tiefbau- und Entsorgungsdepartement (TED)","","","","","","","","","Spielplatz","","Drahtzugstrasse","","2903.0000000000","","","","","","","","","","","","","","","","8008","sp055","","1","","Hartplatz, Schwenkwippe, Hängematte, Kletteranlage mit Rutsche, Sitzbänke","+41 44 422 54 97","","","","","","","https://www.zvv.ch/de/fahrplan-und-informationen/fahrplan.html?toname=Drahtzugstrasse&tolat=47.35969556&tolon=8.56447048","55","J","0 - 9 Jahre","Schwenkwippe, Hängematte, Kletteranlage mit Rutsche","","","Quartierspielplatz","Spielplatz","Hartplatz","0055","POINT (2685051 1246037.9)"
"","Werdinsel, Winzerhalde","","","","","Grün Stadt Zürich","202412161130","","Tiefbau- und Entsorgungsdepartement (TED)","","","","","","","","","Spielplatz","","Au-Höngg (Flussbad)","","2904.0000000000","","","","","","","","","","","","","","","","8049","sp119","","1","","Spiel- und Liegewiese, Seilanlage, Schwingwippe, Federwippe, Brettschaukel, Drehkletterturm, Balkenwippe, Wasserförderanlage, Rundlauf, Brettschaukel, Sitzbänke, Planschbecken, Badeanlage","+41 44 344 14 00","","","","","","","https://www.zvv.ch/de/fahrplan-und-informationen/fahrplan.html?toname=Werdinsel,%20Winzerhalde&tolat=47.39914901&tolon=8.48978085","119","J","0 - 9 Jahre","Seilanlage, Schwingwippe, Federwippe, Brettschaukel, Drehkletterturm, Balkenwippe, Wasserförderanlage, Rundlauf, Brettschaukel","","","Spielanlage liegt innerhalb Badeanlage an der Limmat. Die Anlage ist nur über die Sommermonate zugänglich.","Spielplatz in Badeanlage","Spiel- und Liegewiese","0119","POINT (2679350 1250345.6)"
"","An der Schwandenwiese","","","","","Grün Stadt Zürich","202412161130","","Tiefbau- und Entsorgungsdepartement (TED)","","","","","0_","_NULL","","","Spielplatz","","Abenteuerspielplatz Buntspecht","","2905.0000000000","","","","","","","","","","","","","","","","8052","sp191","","1","","Abenteuerspielplatz, keine Spielgeräte, Feuerstelle, Hauptaktivität ist der Bau von Hütten und das Werken mit Holz und anderen Materialien, Bauspielplatz","+41 44 412 06 77","","","","","","An der Schwandenwiese","https://www.zvv.ch/de/fahrplan-und-informationen/fahrplan.html?toname=An%20der%20Schwandenwiese&tolat=47.42492130&tolon=8.53449056","191","J","0 - 16 Jahre","keine Spielgeräte","","","Hauptaktivität ist der Bau von Hütten und das Werken mit Holz und anderen Materialien, beaufsichtigter Bauspielplatz mit Öffnungszeiten","Bauspielplatz - privater Verei","Abenteuerspielplatz","0191","POINT (2682685 1253257)"
"","Bellerivestrasse","","","","","Grün Stadt Zürich","202412161130","","Tiefbau- und Entsorgungsdepartement (TED)","","","","","","","","","Spielplatz","","Tiefenbrunnen (Strandbad)","","2906.0000000000","","","","","","","","","","","","","","","","8008","sp135","","1","","Spiel- und Liegewiese, Federwippe, Balkenwippe, Bockrutsche, Brettschaukel, Pumpe, Sitzbänke","+41 44 422 54 97","","","","","","","https://www.zvv.ch/de/fahrplan-und-informationen/fahrplan.html?toname=Bellerivestrasse&tolat=47.35300239&tolon=8.55585493","135","J","0 - 9 Jahre","Federwippe, Balkenwippe, Bockrutsche, Brettschaukel, Pumpe","","","Jeweils kostenlos zugänglich von Oktober bis April","Spielplatz in Badeanlage","Spiel- und Liegewiese","0135","POINT (2684410.8 1245284.5)"
"","Klosterfahrweg","","","","","Grün Stadt Zürich","202412161130","","Tiefbau- und Entsorgungsdepartement (TED)","","","","","","","","","Spielplatz","","Fabrik am Wasser","","2907.0000000000","","","","","","","","","","","","","","","","8049","sp165","","1","","Spiel- und Liegewiese, Hangrutsche, Rotationsgerät, Kletteranlage mit Rutsche, Korbschaukel, Klettergerät, Seilbahn, Sitzbänke, Limmat, Bistro","+41 44 344 14 00","","","","","","","https://www.zvv.ch/de/fahrplan-und-informationen/fahrplan.html?toname=Klosterfahrweg&tolat=47.39533135&tolon=8.50587425","165","J","0 - 9 Jahre","Hangrutsche, Rotationsgerät, Kletteranlage mit Rutsche, Korbschaukel, Klettergerät, Seilbahn","","","Spielanlage an der Limmat gelegen, Bistro direkt neben Spielplatz,","Spielplatz","Spiel- und Liegewiese","0165","POINT (2680570.8 1249937.6)"
"","Wasserschöpfi","","","","","Grün Stadt Zürich","202412161130","","Tiefbau- und Entsorgungsdepartement (TED)","","","","","","","","","Spielplatz","","Heuried (Freibad)","","2908.0000000000","","","","","","","","","","","","","","","","8055","sp186","","1","","Spiel- und Liegewiese, Drehteller, Sandkasten, Rutsche, Kletteranlage mit Rutsche, Schwingwippe, Hängematte, Brettschaukel, Federwippe, Sitzbänke","+41 44 492 71 41","","","","","","","https://www.zvv.ch/de/fahrplan-und-informationen/fahrplan.html?toname=Wasserschöpfi&tolat=47.36695171&tolon=8.50607695","186","J","0 - 9 Jahre","Drehteller, Sandkasten, Rutsche, Kletteranlage mit Rutsche, Schwingwippe, Hängematte, Brettschaukel, Federwippe","","","Umbau 2016","Spielplatz in Badeanlage","Spiel- und Liegewiese","0186","POINT (2680629 1246782.9)"
"","Eibenstrasse / Manessestrasse","","","Das sind keine klassischen Spielplätze, aber da hat es Spielgeräte.<BR>Damit will man dieses Quartier aufwerten.<BR>","","Grün Stadt Zürich","202412161130","","Tiefbau- und Entsorgungsdepartement (TED)","","","","","0__","Kiosk_Das sind keine klassischen Spielplätze, aber da hat es Spielgeräte.<br>Damit will man dieses Quartier aufwerten.<br>","","","Spielplatz","","Eibenstrasse / Manessestrasse","","2909.0000000000","","","","","","","","","","","","","","","","","sp9646","","0","","","+41 44 412 46 13","","","","","","Eibenstrasse / Manessestrasse","https://www.zvv.ch/de/fahrplan-und-informationen/fahrplan.html?toname=Zürich, Manessestrasse 120","","N","","","","","","","","0171","POINT (2681828 1246440)"
"","Kürbergsteig","","","","","Grün Stadt Zürich","202412161130","","Tiefbau- und Entsorgungsdepartement (TED)","","","","","","","","","Spielplatz","","Kürberganlage","","2910.0000000000","","","","","","","","","","","","","","","","8049","sp128","","1","","Spiel- und Liegewiese, Sandkasten, Brettschaukel, Sitzbänke, kleine Spielanlage","+41 44 344 14 00","","","","","","","https://www.zvv.ch/de/fahrplan-und-informationen/fahrplan.html?toname=Kürbergsteig&tolat=47.39857919&tolon=8.50697572","128","J","0 - 5 Jahre","Sandkasten, Brettschaukel","","","kleine Spielanlage","Spielplatz","Spiel- und Liegewiese","0128","POINT (2680649 1250299.9)"
"","Am Katzenbach, Hertensteinstrasse","","","","","Grün Stadt Zürich","202412161130","","Tiefbau- und Entsorgungsdepartement (TED)","","","","","","","","","Spielplatz","","GZ Seebach","","2911.0000000000","","","","","","","","","","","","","","","","8052","sp002","","1","","Spiel- und Liegewiese, Hartplatz, Bocciabahn, Matschtisch, Sandbereich, Sandspielgeräte, Brettschaukel, Wasserspiel,Hangrutsche, Balkenwippe,   Kletterelement, Seilbahn, Federwippe, Boulderwand, Feuerstelle, Brunnen, Tisch, Gemeinschaftszentrum, Bach","+41 44 302 17 44","","","","","","","https://www.zvv.ch/de/fahrplan-und-informationen/fahrplan.html?toname=Am%20Katzenbach,%20Hertensteinstrasse&tolat=47.42437104&tolon=8.54489620","2","J","0 - 16 Jahre","Matschtisch, Sandbereich, Sandspielgeräte, Brettschaukel, Wasserspiel,Hangrutsche, Balkenwippe,   Kletterelement, Seilbahn, Federwippe, Boulderwand","","","Gemeinschaftszentrum am Katzenbach","GZ mit Spielplatz","Spiel- und Liegewiese, Hartplatz, Bocciabahn","0002","POINT (2683471 1253206.9)"
"","Engelbertstrasse","","","","","Grün Stadt Zürich","202412161130","","Tiefbau- und Entsorgungsdepartement (TED)","","","","","","","","","Spielplatz","","Mattenhof","","2926.0000000000","","","","","","","","","","","","","","","","8051","sp026","","1","","Sandanlage, Spiel- und Liegewiese, Sitzkarussell, Pumpen, Hangrutsche, Federwippe, Kletteranlage, Balanciergerät, Rundlauf, Tischtennistisch, WC, Feuerstellen, Sitzbänke, Ausflugsziel","+41 44 322 02 20","","","","","","","https://www.zvv.ch/de/fahrplan-und-informationen/fahrplan.html?toname=Engelbertstrasse&tolat=47.39796247&tolon=8.58991968","26","J","0 - 9 Jahre","Sitzkarussell, Pumpen, Hangrutsche, Federwippe, Kletteranlage, Balanciergerät, Rundlauf, Tischtennistisch","","","grosszügige, naturnahe Anlage, Familienausflugsziel, Schlüssel für Toilette muss beim Friedhof Schwamendingen ausgeliehen werden","Spielplatz","Sandanlage, Spiel- und Liegewiese","0026","POINT (2686911 1250319.9)"
"","Eugen Huber-/Loogartenstrasse","","","","","Grün Stadt Zürich","202412161130","","Tiefbau- und Entsorgungsdepartement (TED)","","","","","","","","","Spielplatz","","GZ Loogarten","","2927.0000000000","","","","","","","","","","","","","","","","8048","sp098","","1","","Spielwiese, Bach, Sandanlage, Kiesfläche, Seilanlage, Brettschaukel, Spielhaus, Pendelschaukel, Balanciergerät, Kletteranlage, Sandbereich, Hangrutsche, Kletterelement, Hängebrücke, Wasserförderanlage, Sitzbänke, Sonnenschirme, Gemeinschaftszentrum","+41 44 431 57 61","","","","","","","https://www.zvv.ch/de/fahrplan-und-informationen/fahrplan.html?toname=Eugen%20Huber-/Loogartenstrasse&tolat=47.38813495&tolon=8.47214768","98","J","0 - 16 Jahre","Seilanlage, Brettschaukel, Spielhaus, Pumpe, Pendelschaukel, Balanciergerät, Kletteranlage mit Rutsche, Sandbereich, Hangrutsche, Kletterelement, Hängebrücke, Wasserförderanlage","","","Gemeinschaftszentrum angrenzend an Schulanlage mit Schulspielwiese und Hartflächen","GZ mit Spielplatz","Spielwiese, Bach, Sandanlage, grosse Kiesfläche","0098","POINT (2678035.2 1249103.5)"
"","Lommisweg","","","","","Grün Stadt Zürich","202412161130","","Tiefbau- und Entsorgungsdepartement (TED)","","","","","","","","","Spielplatz","","Lommisweg B","","2928.0000000000","","","","","","","","","","","","","","","","8048","sp096b","","1","","Kiesplatz, Hängematte, Balanciergerät, Kletteranlage mit Rutschstangen, Lümmelbank, Sitzbänke","+41 44 431 57 61","","","","","","","https://www.zvv.ch/de/fahrplan-und-informationen/fahrplan.html?toname=Lommisweg&tolat=47.38987662&tolon=8.48648226","96b","J","0 - 16 Jahre","Hängematte, Balanciergerät, Kletteranlage mit Rutschstangen","","","Quartierspielplatz","Spielplatz","Kiesplatz","0096B","POINT (2679115 1249311.5)"
"","","","","","","Grün Stadt Zürich","202502051308","","Tiefbau- und Entsorgungsdepartement (TED)","","","","6","","","","","Spielplatz","","WS Birkenhof BWS Birkenhof B","","2929.0000000000","","","","","","","","","","","","","","","Zürich","8057","sp9653","","1","Im Birkenhof","","","","","","","","Zürich Guggachstrasse","https://online.fahrplaninfo.zvv.ch/frame_hst3.php?lang=de&hstNr=1061&$hstName=Z%FCrich,%20Guggachstrasse","","J","0 - 15 Jahre","Wippe, Balanciergerät","","","","Spielplatz","Wippe, Balanciergerät","0038","POINT (2683090 1249913.9)"
"","Binzmühlestrasse 40","","","","","Grün Stadt Zürich","202412161130","","Tiefbau- und Entsorgungsdepartement (TED)","","","","","0_","_NULL","","","Spielplatz","","Brache Binzmühlestrasse","","2930.0000000000","","","","","","","","","","","","","","","","8050","sp195","","1","","Kiesfläche, Brettschaukel, Korbschaukel, Kletteranlage mit Rutsche, Sandkasten, Sitzbänke, Sonnensegel, Pflanzkisten, temporärer, Kukuk-Box","+41 44 412 06 77","","","","","","Binzmühlestrasse 40","https://www.zvv.ch/de/fahrplan-und-informationen/fahrplan.html?toname=Binzmühlestrasse%2040&tolat=47.41413088&tolon=8.54638062","195","J","0 - 9 Jahre","Brettschaukel, Korbschaukel, Kletteranlage mit Rutsche, Sandkasten","","","Temporärer Quartierspielplatz mit einer einzigartigen mobilen Kukuk-Box","Spielplatz","Kiesfläche","0195","POINT (2683599 1252070)"
"","Langgrütweg, zw. In d.Ey u. Langrütstr.","","","","","Grün Stadt Zürich","202412161130","","Tiefbau- und Entsorgungsdepartement (TED)","","","","","","","","","Spielplatz","","Langgrüt - Altweg","","2931.0000000000","","","","","","","","","","","","","","","","8047","sp115","","1","","Spiel- und Liegewiese, Brettschaukel, Sandbereich, Bockrutsche, Federwippe, Pumpe, Sitzbänke, ruhig","+41 44 431 57 61","","","","","","","https://www.zvv.ch/de/fahrplan-und-informationen/fahrplan.html?toname=Langgrütweg,%20zw.%20In%20d.Ey%20u.%20Langrütstr.&tolat=47.37350591&tolon=8.4908","115","J","0 - 5 Jahre","Brettschaukel, Sandbereich, Bockrutsche, Federwippe, Pumpe","","","ruhiger Spielplatz","Spielplatz","Spiel- und Liegewiese","0115","POINT (2679467.5 1247496)"
"","Andreasstrasse/Riedgrabenweg","","","","","Grün Stadt Zürich","202412161130","","Tiefbau- und Entsorgungsdepartement (TED)","","","","","","","","","Spielplatz","","Andreaspark A","","2932.0000000000","","","","","","","","","","","","","","","","8050","sp163a","","1","","Spiel- und Liegewiese, Hartplatz, Drehteller, Gurtensteg, Hüpfteller, Schwingwippe, Sitzbänke, Brunnen, Basketballkorb","+41 44 322 02 20","","","","","","","https://www.zvv.ch/de/fahrplan-und-informationen/fahrplan.html?toname=Andreasstrasse/Riedgrabenweg&tolat=47.41313927&tolon=8.55821039","163a","J","0 - 9 Jahre","Drehteller, Gurtensteg, Hüpfteller, Schwingwippe","","","Quartierspielplatz","Spielplatz","Spiel- und Liegewiese, Hartplatz","0163A","POINT (2684493.2 1251972.4)"
"","Überdeckung Katzensee","Katzenseestrasse","","","","Grün Stadt Zürich","202412161130","","Tiefbau- und Entsorgungsdepartement (TED)","","","","","0_","Spielplatz","","","Spielplatz","","Überdeckung KatzenseeÜberdeckung Katzensee","","2933.0000000000","","","","","","","","","","","","","","","","","sp9022","","1","","","+41 44 371 05 13","","","","","","Überdeckung Katzensee","https://www.zvv.ch/de/fahrplan-und-informationen/fahrplan.html?toname=Überdeckung%20Katzensee&tolat=47.42684965&tolon=8.49841113","","N","","","","","","","","0198","POINT (2679960 1253434)"
"","Regensdorferstrasse 237","","","","","Grün Stadt Zürich","202412161130","","Tiefbau- und Entsorgungsdepartement (TED)","","","","237","0_","Spielplatz","","","Spielplatz","","GrünwaldGrünwald","","2934.0000000000","","","","","","","","","","","","","","","Zürich","","sp9574","","1","Regensdorferstrasse","","+41 44 412 46 13","","","","","","Regensdorferstrasse 237","https://www.zvv.ch/de/fahrplan-und-informationen/fahrplan.html?toname=Zürich%2C%20Regensdorferstrasse%20237&tolat=47.41789913&tolon=8.48264827","","N","","","","","","","","0169","POINT (2678784 1252423)"
"","Dialogweg 6","","","","","Grün Stadt Zürich","202412161130","","Tiefbau- und Entsorgungsdepartement (TED)","","","","","","","","","Spielplatz","","Andreaspark B","","2935.0000000000","","","","","","","","","","","","","","","","8050","sp163b","","1","","Spiel- und Liegewiese, Röhren, Spielhaus, Brettschaukel, Sandkasten, Pumpe, Sitzbänke, Sonnenschirm","+41 44 322 02 20","","","","","","","https://www.zvv.ch/de/fahrplan-und-informationen/fahrplan.html?toname=Dialogweg%206&tolat=47.41322420&tolon=8.56003626","163b","J","0 - 5 Jahre","Röhren, Spielhaus, Brettschaukel, Sandkasten, Pumpe","","","Quartierspielplatz","Spielplatz","Spiel- und Liegewiese","0163B","POINT (2684631 1251983.9)"
"","Bachstrasse","","","","","Grün Stadt Zürich","202412161130","","Tiefbau- und Entsorgungsdepartement (TED)","","","","","","","","","Spielplatz","","GZ Wollishofen","","2936.0000000000","","","","","","","","","","","","","","","","8038","sp083","","1","","Spiel- und Liegewiese, Kiesfläche, Sandkasten, Kletteranlage mit Rutsche, Brettschaukel, Spezialgeräte, Feuerstelle, Sitzbänke, Pergola, Bocciabahn, Gemeinschaftszentrum, Café","+41 44 201 75 00","","","","","","","https://www.zvv.ch/de/fahrplan-und-informationen/fahrplan.html?toname=Bachstrasse&tolat=47.34506859&tolon=8.53636224","83","J","0 - 16 Jahre","Sandkasten, Kletteranlage mit Rutsche, Brettschaukel, Spezialgeräte","","","direkt am Zürichsee gelegenes Gemeinschaftszentrum mit Café","GZ mit Spielplatz","Spiel- und Liegewiese, Kiesfläche","0083","POINT (2682950.2 1244381.6)"
"","","","","","","Grün Stadt Zürich","202502051308","","Tiefbau- und Entsorgungsdepartement (TED)","","","","6","","","","","Spielplatz","","WS Birkenhof AWS Birkenhof A","","2937.0000000000","","","","","","","","","","","","","","","Zürich","8057","sp9652","","1","Im Birkenhof","","","","","","","","Zürich Guggachstrassse","https://online.fahrplaninfo.zvv.ch/frame_hst3.php?lang=de&hstNr=1061&$hstName=Z%FCrich,%20Guggachstrasse","","J","0 - 15 Jahre","Schaukel, Balanciergerät, Wippen, Balancierspiel, Sandkasten","Im Innenhof","","","Spielplatz","Schaukel, Balanciergerät, Wippen, Balancierspiel, Sandkasten","0018","POINT (2683049.5 1249942.9)"
"","Kalkbreitestrasse 93","","","","","Grün Stadt Zürich","202412161130","","Tiefbau- und Entsorgungsdepartement (TED)","","","","","","","","","Spielplatz","","Wiedinghof","","2938.0000000000","","","","","","","","","","","","","","","","8003","sp068","","1","","Spiel- und Liegewiese, Brettschaukel, Tischtennistisch, Sitzbänke, Baumbestand","+41 44 492 71 41","","","","","","","https://www.zvv.ch/de/fahrplan-und-informationen/fahrplan.html?toname=Kalkbreitestrasse%2093&tolat=47.37162286&tolon=8.51684020","68","J","0 - 5 Jahre","Brettschaukel, Tischtennistisch","","","Innenhof mit schönem Baumbestand","Spielplatz","Spiel- und Liegewiese","0068","POINT (2681434.8 1247313.2)"
"","Minervastrasse","","","","","Grün Stadt Zürich","202412161130","","Tiefbau- und Entsorgungsdepartement (TED)","","","","","","","","","Spielplatz","","Artergut","","2939.0000000000","","","","","","","","","","","","","","","","8032","sp052","","1","","Spiel- und Liegewiese, Spielhügel, Planschbecken, Kletteranlagen mit Rutschen, Brettschaukel, Federwippe, Sandbereich,  Spielhaus, Wasserspiel, Kletteranlage mit Rutsche, Sitzbänke, Baumbestand","+41 44 422 54 97","","","","","","","https://www.zvv.ch/de/fahrplan-und-informationen/fahrplan.html?toname=Minervastrasse&tolat=47.36613634&tolon=8.55498935","52","J","0 - 16 Jahre","Kletteranlagen mit Rutschen, Brettschaukel, Federwippe, Sandbereich,  Spielhaus, Wasserspiel, Kletteranlage mit Rutsche","","","grosszügige Parkanlage mit altem Baumbestand","Spielplatz","Spiel- und Liegewiese, Spielhügel, Planschbecken","0052","POINT (2684324.5 1246743.6)"
"","Neumünsterstrasse 16 (Spielplatz)","","","","","Grün Stadt Zürich","202412161130","","Tiefbau- und Entsorgungsdepartement (TED)","","","","","","","","","Spielplatz","","Neumünsteranlage","","2940.0000000000","","","","","","","","","","","","","","","","8008","sp054","","1","","Spiel- und Liegewiese, Bockrutsche, Federwippe, Sandbereich, Brettschaukel, Sitzbänke","+41 44 422 54 97","","","","","","","https://www.zvv.ch/de/fahrplan-und-informationen/fahrplan.html?toname=Neumünsterstrasse%2016%20(Spielplatz)&tolat=47.36047501&tolon=8.55909475","54","J","0 - 5 Jahre","Bockrutsche, Federwippe, Sandbereich, Brettschaukel","","","Umbau 2016","Spielplatz","Spiel- und Liegewiese","0054","POINT (2684643.5 1246118.6)"
"","Steinstrasse / Gotthelfstrasse","","","","","Grün Stadt Zürich","202412161130","","Tiefbau- und Entsorgungsdepartement (TED)","","","","","0__","","","","Spielplatz","","Steinstrasse / GotthelfstrasseSteinstrasse / Gotthelfstrasse","","2941.0000000000","","","","","","","","","","","","","","","Zürich","","sp9642","","0","","","+41 44 412 46 13","","","","","","Steinstrasse / Gotthelfstrasse","https://www.zvv.ch/de/fahrplan-und-informationen/fahrplan.html?toname=Zürich, Gotthelfstrasse 54","","N","","","","","","","","TAZ005","POINT (2681661 1246988)"
"","Roswiesenstrasse","","","","","Grün Stadt Zürich","202412161130","","Tiefbau- und Entsorgungsdepartement (TED)","","","","","","","","","Spielplatz","","Roswiesen","","2942.0000000000","","","","","","","","","","","","","","","","8051","sp017","","1","","grosse Kiesfläche, Balanciergerät, Kombischaukel, Sandbereich, Kletteranlage mit Rutsche, Sitzbänke","+41 44 322 02 20","","","","","","","https://www.zvv.ch/de/fahrplan-und-informationen/fahrplan.html?toname=Roswiesenstrasse&tolat=47.40533361&tolon=8.57763984","17","J","0 - 5 Jahre","Balanciergerät, Kombischaukel, Sandbereich, Kletteranlage mit Rutsche","","","grosszügiger Quartierspielplatz","Spielplatz","grosse Kiesfläche","0017","POINT (2685972 1251125.8)"
"","Kanonengasse 18, im Innenhof des alten Zeughaus","","","","","Grün Stadt Zürich","202412161130","","Tiefbau- und Entsorgungsdepartement (TED)","","","","","","","","","Spielplatz","","Kasernenareal","","2957.0000000000","","","","","","","","","","","","","","","","8004","sp109","","1","","Spiel- und Liegewiese, Hartplatz, Schwingwippe, Brettschaukel, Sandkasten, Bockrutsche, Sitzbänke, eingezäunter Kleinkinderspielbereich","+41 44 461 21 17","","","","","","","https://www.zvv.ch/de/fahrplan-und-informationen/fahrplan.html?toname=Kanonengasse%2018,%20im%20Innenhof%20des%20alten%20Zeughaus&tolat=47.37734304&to","109","J","0 - 5 Jahre","Schwingwippe, Brettschaukel, Sandkasten, Bockrutsche","","","eingezäunter Kleinkinderspielbereich","Spielplatz","Spiel- und Liegewiese, Hartplatz","0109","POINT (2682431.2 1247963.1)"
"","Hardhof","","","","","Grün Stadt Zürich","202412161130","","Tiefbau- und Entsorgungsdepartement (TED)","","","","","","","","","Spielplatz","","Hardhof","","2958.0000000000","","","","","","","","","","","","","","","","8064","sp095","","1","","grosser, gepflästerter Wasserspielbereich, Wasserspiel, Pumpe, Wasserförderanlage,   Kletterelement, Sitzbänke, Attraktiver, Wasserspielplatz","+41 44 344 14 00","","","","","","","https://www.zvv.ch/de/fahrplan-und-informationen/fahrplan.html?toname=Hardhof&tolat=47.39635163&tolon=8.49811195","95","J","0 - 9 Jahre","Wasserspiel, Pumpe, Wasserförderanlage,   Kletterelement","","","Attraktiver, vielfältiger Wasserspielplatz in der Sportanlage Hardhof","Spielplatz","grosser, gepflästerter Wasserspielbereich","0095","POINT (2679983.2 1250043.1)"
"","Stampfenbachstrasse 116-130","","","","","Grün Stadt Zürich","202412161130","","Tiefbau- und Entsorgungsdepartement (TED)","","","","","","","","","Spielplatz","","Beckenhof","","2959.0000000000","","","","","","","","","","","","","","","","8006","sp034","","1","","Spiel- und Liegewiese, Federwippe, Brettschaukel, Sandbereich, Rutsche, Federwippe, Kleinkinderschaukel, Sitzbänke, historische Anlage, Baumbestand","+41 44 361 63 18","","","","","","","https://www.zvv.ch/de/fahrplan-und-informationen/fahrplan.html?toname=Stampfenbachstrasse%20116-130&tolat=47.38550998&tolon=8.54042065","34","J","0 - 5 Jahre","Federwippe, Brettschaukel, Sandbereich, Rutsche, Federwippe, Kleinkinderschaukel","","","historische Anlage mit sehr schönem Baumbestand","Spielplatz","Spiel- und Liegewiese","0034","POINT (2683194 1248881.9)"
"","Klopstockstrasse","","","","","Grün Stadt Zürich","202412161130","","Tiefbau- und Entsorgungsdepartement (TED)","","","","","","","","","Spielplatz","","Klopstockwiese","","2960.0000000000","","","","","","","","","","","","","","","","8002","sp077","","1","","Spiel- und Liegewiese, Schlittelhang, Balanciergerät, Federwippe, Sandbereich, Sitzkarussell, Sandspielgeräte, Sitzbänke, Baumbestand","+41 44 201 75 00","","","","","","","https://www.zvv.ch/de/fahrplan-und-informationen/fahrplan.html?toname=Klopstockstrasse&tolat=47.36238530&tolon=8.52401377","77","J","0 - 5 Jahre","Balanciergerät, Federwippe, Sandbereich, Sitzkarussell, Sandspielgeräte","","","grosszügige Parkanlage mit schönem Baumbestand","Spielplatz","Spiel- und Liegewiese, Schlittelhang","0077","POINT (2681990.8 1246293.8)"
"","Marktplatz","","","","","Grün Stadt Zürich","202412161130","","Tiefbau- und Entsorgungsdepartement (TED)","","","","","","","","","Spielplatz","","Marktplatz Oerlikon","","2961.0000000000","","","","","","","","","","","","","","","","8050","sp133","","1","","Hartplatz, Brettschaukel, Balkenwippe, Sitzbänke, Brunnen, Marktplatz","+41 44 322 02 20","","","","","","","https://www.zvv.ch/de/fahrplan-und-informationen/fahrplan.html?toname=Marktplatz&tolat=47.41053657&tolon=8.54445136","133","J","0 - 5 Jahre","Brettschaukel, Balkenwippe","","","grosser Marktplatz mit Brunnen","SPPL GSZ öffentlich","Hartplatz","0133","POINT (2683459 1251668.4)"
"","Riedhofstrasse, unterhalb ASIG-Siedlung Rütihof am Waldrand","","","","","Grün Stadt Zürich","202412161130","","Tiefbau- und Entsorgungsdepartement (TED)","","","","","0_","_NULL","","","Spielplatz","","Bauspielplatz Rütihütten","","2962.0000000000","","","","","","","","","","","","","","","","8049","sp190","","1","","Abenteuerspielplatz, keine Spielgeräte, Feuerstelle, Hauptaktivität ist der Bau von Hütten und das Werken mit Holz und anderen Materialien, Bauspielplatz","+41 44 344 14 00","","","","","","Riedhofstrasse, unterhalb ASIG-Siedlung Rütihof am Waldrand","https://www.zvv.ch/de/fahrplan-und-informationen/fahrplan.html?toname=Riedhofstrasse,%20unterhalb%20ASIG-Siedlung%20Rütihof%20am%20Waldrand&tolat=47.4","190","J","0 - 16 Jahre","keine Spielgeräte","","","Hauptaktivität ist der Bau von Hütten und das Werken mit Holz und anderen Materialien, beaufsichtigter Bauspielplatz mit Öffnungszeiten","Bauspielplatz - privater Verei","Abenteuerspielplatz","0190","POINT (2678343 1251786)"
"","Berghaldenstrasse 4","","","","","Grün Stadt Zürich","202412161130","","Tiefbau- und Entsorgungsdepartement (TED)","","","","","0__","","","","Spielplatz","","BerghaldenanlageBerghaldenanlage","","2963.0000000000","","","","","","","","","","","","","","","Zürich","8053","sp13061","","1","","Berghalde","+41 44 412 27 68","","","","","","Berghaldenstrasse 4","https://www.zvv.ch/de/fahrplan-und-informationen/fahrplan.html?toname=Zürich, Berghaldenstrasse 4","","N","","","","","","","","","POINT (2687038 1245908)"
"","Langmauerstrasse 7 (Spielplatz)","","","","","Grün Stadt Zürich","202412161130","","Tiefbau- und Entsorgungsdepartement (TED)","","","","","","","","","Spielplatz","","Quartiertreff Unterstrass","","2964.0000000000","","","","","","","","","","","","","","","","8006","sp118","","1","","Sandbereich, Brettschaukel, Federwippe, Rutsche, Sitzbänke, Quartierhaus","+41 44 361 63 18","","","","","","","https://www.zvv.ch/de/fahrplan-und-informationen/fahrplan.html?toname=Langmauerstrasse%207%20(Spielplatz)&tolat=47.38888155&tolon=8.54074580","118","J","0 - 5 Jahre","Sandbereich, Brettschaukel, Federwippe, Rutsche","","","Quartierhaus Kreis 6","Quartiertreff mit Spielplatz","","0118","POINT (2683213.2 1249257)"
"","Weidmannstrasse","","","","","Grün Stadt Zürich","202412161130","","Tiefbau- und Entsorgungsdepartement (TED)","","","","","","","","","Spielplatz","","Ruggächeranlage","","2965.0000000000","","","","","","","","","","","","","","","","8046","sp175","","1","","Kiesfläche, Kletterelement, Brettschaukel,  Wasserförderanlage, Balanciergerät, Kletterelement, Korbschaukel, Spielhaus, Federwippe, Pumpe, Bockrutsche,    Seilanlage,  Sandbereich, Sitzbänke, Sonnensegel","+41 44 371 05 13","","","","","","","https://www.zvv.ch/de/fahrplan-und-informationen/fahrplan.html?toname=Weidmannstrasse&tolat=47.42314054&tolon=8.50149131","175","J","0 - 9 Jahre","Kletterelement, Brettschaukel,  Wasserförderanlage, Balanciergerät, Kletterelement, Korbschaukel, Spielhaus, Federwippe, Pumpe, Bockrutsche,    Seilanlage,  Sandbereich","","","Quartierspielplatz","Spielplatz","Kiesfläche","0175","POINT (2680198 1253024.8)"
"","Bertastrasse/Zentralstrasse","","","","","Grün Stadt Zürich","202412161130","","Tiefbau- und Entsorgungsdepartement (TED)","","","","","","","","","Spielplatz","","Bertahof","","2966.0000000000","","","","","","","","","","","","","","","","8003","sp161","","1","","Kiesfläche, Federwippe, Brettschaukel, Kletteranlage mit Rutsche, Balanciergerät, Sitzbänke, Innenhof, Baumbestand","+41 44 492 71 41","","","","","","","https://www.zvv.ch/de/fahrplan-und-informationen/fahrplan.html?toname=Bertastrasse/Zentralstrasse&tolat=47.37494756&tolon=8.51630388","161","J","0 - 5 Jahre","Federwippe, Brettschaukel, Kletteranlage mit Rutsche, Balanciergerät","","","Innenhof mit schönem Baumbestand","Spielplatz","Kiesfläche","0161","POINT (2681389.2 1247682.4)"
"","Nordstrasse","","","","","Grün Stadt Zürich","202412161130","","Tiefbau- und Entsorgungsdepartement (TED)","","","","","","","","","Spielplatz","","Schindlergut","","2967.0000000000","","","","","","","","","","","","","","","","8006","sp033b","","1","","Spiel- und Liegewiese, Korbschaukel, Kletteranlage mit Rutsche, Hängematte, Sitzbänke, Brunnen, grosszügige Parkanlage mit altem Baumbestand","+41 44 361 63 18","","","","","","","https://www.zvv.ch/de/fahrplan-und-informationen/fahrplan.html?toname=Nordstrasse&tolat=47.38654073&tolon=8.53608446","33b","J","0 - 16 Jahre","Korbschaukel, Kletteranlage mit Rutsche, Hängematte","","","grosszügige Parkanlage mit altem Baumbestand","Spielplatz","Spiel- und Liegewiese","0033B","POINT (2682865 1248991.9)"
"","Landiwiese","","","","","Grün Stadt Zürich","202412161130","","Tiefbau- und Entsorgungsdepartement (TED)","","","","","1_","Besuchenden-WC_Liegewiese","","","Spielplatz","","Landiwiese","","2968.0000000000","","","","","","","","","","","","","","","Zürich","8038","sp9485","","1","","","+41 44 482 10 03","","","","","","","https://www.zvv.ch/de/fahrplan-und-informationen/fahrplan.html?toname=Zürich%2C%20Landiwiese&tolat=47.34952405&tolon=8.53544335","","N","","","","","","","","0197","POINT (2682874 1244876)"
"","Wallisellenstrasse","","","","","Grün Stadt Zürich","202412161130","","Tiefbau- und Entsorgungsdepartement (TED)","","","","","","","","","Spielplatz","","Hallenbad Oerlikon","","2969.0000000000","","","","","","","","","","","","","","","","8050","sp184","","1","","Spiel- und Liegewiese, Rundlauf, Spielhaus, Kletteranlage, Sitzbänke, Badeanlage","+41 44 322 02 20","","","","","","","https://www.zvv.ch/de/fahrplan-und-informationen/fahrplan.html?toname=Wallisellenstrasse&tolat=47.40923117&tolon=8.55624208","184","J","0 - 9 Jahre","Rundlauf, Spielhaus, Kletteranlage","","","Spielanlage in Badeanlage. Öffnungszeiten berücksichtigen!","Spielplatz in Badeanlage","Spiel- und Liegewiese","0184","POINT (2684351 1251535.9)"
"","Im Hagenbrünneli","","","","","Grün Stadt Zürich","202412161130","","Tiefbau- und Entsorgungsdepartement (TED)","","","","","","","","","Spielplatz","","Hagenbrünneli","","2970.0000000000","","","","","","","","","","","","","","","","8046","sp010","","1","","Spiel- und Liegewiese, Kleinkinderschaukel, Kletterlement, Federwippe, Sandbereich, Hangrutsche, Rotationsgerät, Sitzbänke","+41 44 371 05 13","","","","","","","https://www.zvv.ch/de/fahrplan-und-informationen/fahrplan.html?toname=Im%20Hagenbrünneli&tolat=47.41331848&tolon=8.51191629","10","J","0 - 5 Jahre","Kleinkinderschaukel, Kletterlement, Federwippe, Sandbereich, Hangrutsche, Rotationsgerät","","","kleine Grünanlage","Spielplatz","Spiel- und Liegewiese","0010","POINT (2680999.5 1251943.5)"
"","Helen-Keller-Strasse","","","","","Grün Stadt Zürich","202412161130","","Tiefbau- und Entsorgungsdepartement (TED)","","","","","","","","","Spielplatz","","GZ Hirzenbach","","2971.0000000000","","","","","","","","","","","","","","","","8051","sp020","","1","","grosse Spiel- und Liegewiese, grosse Kiesfläche, Spielhügel, Pumpe, Korbschaukel, Hangrutsche, Pendelschaukel, Wasserspiel,  Brettschaukel, Seilanlage, Seilbahn, Sandbereich, Sandspielgerät, Tischtennistisch, Feuerstellen, Gemeinschaftszentrum","+41 44 322 02 20","","","","","","","https://www.zvv.ch/de/fahrplan-und-informationen/fahrplan.html?toname=Helen-Keller-Strasse&tolat=47.40215102&tolon=8.59153123","20","J","0 - 16 Jahre","Pumpe, Korbschaukel, Hangrutsche, Pendelschaukel, Wasserspiel,  Brettschaukel, Seilanlage, Seilbahn, Sandbereich, Sandspielgerät, Tischtennistisch","","","Gemeinschaftszentrum, naturnahe Umgebung","GZ mit Spielplatz","grosse Spiel- und Liegewiese, grosse Kiesfläche, Spielhügel","0020","POINT (2687025.8 1250787.2)"
"","Ueberlandstrasse 489","","","","","Grün Stadt Zürich","202412161130","","Tiefbau- und Entsorgungsdepartement (TED)","","","","489","0_","Spielplatz","","","Spielplatz","","Buchegg TennisanlageBuchegg Tennisanlage","","2972.0000000000","","","","","","","","","","","","","","","Zürich","8051","sp9573","","1","Ueberlandstrasse","Buchegg Tennisanlage","+41 44 412 46 13","","","","","","Ueberlandstrasse 489","https://www.zvv.ch/de/fahrplan-und-informationen/fahrplan.html?toname=Zürich%2C%20Ueberlandstrasse%20489&tolat=47.40560084&tolon=8.59533271","","N","","","","","","","","0167","POINT (2687307 1251175)"
